{
"type": "FeatureCollection",
"name": "floods",
"crs": { "type": "name", "properties": { "name": "urn:ogc:def:crs:OGC:1.3:CRS84" } },
"features": [
{ "type": "Feature", "properties": { "DisNo.": "2002-0265-KEN", "Historic": "No", "Classification Key": "nat-hyd-flo-riv", "Disaster Group": "Natural", "Disaster Subgroup": "Hydrological", "Disaster Type": "Flood", "Disaster Subtype": "Riverine flood", "External IDs": null, "Event Name": null, "ISO": "KEN", "Country": "Kenya", "Subregion": "Sub-Saharan Africa", "Region": "Africa", "Location": "Migori, Kisumu, Nyando, Rachuonyo districts (Nyanza province), Kirinyaga, Muranga, Thika districts (Central province), Busia districts (Western province), Ijara district (North Eastern province)", "Origin": "Heavy rain", "Associated Types": "Slide (land, mud, snow, rock)", "OFDA\/BHA Response": "No", "Appeal": "No", "Declaration": "No", "AID Contribution ('000 US$)": 5621, "Magnitude": null, "Magnitude Scale": "Km2", "Latitude": null, "Longitude": null, "River Basin": "Mara, Tana, Sabaki", "Start Year": 2002, "Start Month": 4, "Start Day": 26, "End Year": 2002, "End Month": 5, "End Day": 28, "Total Deaths": 53, "No. Injured": 8, "No. Affected": 150000, "No. Homeless": null, "Total Affected": 150008, "Reconstruction Costs ('000 US$)": null, "Reconstruction Costs, Adjusted ('000 US$)": null, "Insured Damage ('000 US$)": null, "Insured Damage, Adjusted ('000 US$)": null, "Total Damage ('000 US$)": null, "Total Damage, Adjusted ('000 US$)": null, "CPI": 59.03314408, "Admin Units": [ { "adm2_code": 51334, "adm2_name": "Kirinyaga" }, { "adm2_code": 51336, "adm2_name": "Muranga" }, { "adm2_code": 51339, "adm2_name": "Thika" }, { "adm2_code": 51354, "adm2_name": "Meru Central" }, { "adm2_code": 51355, "adm2_name": "Meru North" }, { "adm2_code": 51356, "adm2_name": "Meru South" }, { "adm2_code": 51362, "adm2_name": "Ijara" }, { "adm2_code": 51369, "adm2_name": "Kisumu" }, { "adm2_code": 51371, "adm2_name": "Migori" }, { "adm2_code": 51373, "adm2_name": "Nyando" }, { "adm2_code": 51374, "adm2_name": "Rachuonyo" }, { "adm2_code": 51396, "adm2_name": "Busia" } ], "Entry Date": "2005-09-22", "Last Update": "2023-09-25" }, "geometry": null },
{ "type": "Feature", "properties": { "DisNo.": "2002-0689-KEN", "Historic": "No", "Classification Key": "nat-hyd-flo-riv", "Disaster Group": "Natural", "Disaster Subgroup": "Hydrological", "Disaster Type": "Flood", "Disaster Subtype": "Riverine flood", "External IDs": null, "Event Name": null, "ISO": "KEN", "Country": "Kenya", "Subregion": "Sub-Saharan Africa", "Region": "Africa", "Location": "Madogo area (Tana River district, Coast province), Kinango area (Kwale district, Coast province)", "Origin": "Heavy rain", "Associated Types": null, "OFDA\/BHA Response": "No", "Appeal": "No", "Declaration": "No", "AID Contribution ('000 US$)": null, "Magnitude": 77900.0, "Magnitude Scale": "Km2", "Latitude": null, "Longitude": null, "River Basin": null, "Start Year": 2002, "Start Month": 10, "Start Day": 29, "End Year": 2002, "End Month": 11, "End Day": 4, "Total Deaths": 14, "No. Injured": null, "No. Affected": 20000, "No. Homeless": null, "Total Affected": 20000, "Reconstruction Costs ('000 US$)": null, "Reconstruction Costs, Adjusted ('000 US$)": null, "Insured Damage ('000 US$)": null, "Insured Damage, Adjusted ('000 US$)": null, "Total Damage ('000 US$)": null, "Total Damage, Adjusted ('000 US$)": null, "CPI": 59.03314408, "Admin Units": [ { "adm2_code": 51341, "adm2_name": "Kwale" }, { "adm2_code": 51346, "adm2_name": "Tana River" } ], "Entry Date": "2005-09-26", "Last Update": "2023-09-25" }, "geometry": null },
{ "type": "Feature", "properties": { "DisNo.": "2002-0711-KEN", "Historic": "No", "Classification Key": "nat-hyd-flo-fla", "Disaster Group": "Natural", "Disaster Subgroup": "Hydrological", "Disaster Type": "Flood", "Disaster Subtype": "Flash flood", "External IDs": null, "Event Name": null, "ISO": "KEN", "Country": "Kenya", "Subregion": "Sub-Saharan Africa", "Region": "Africa", "Location": "Kiambu district (Central province)", "Origin": "Dam\/levy, break or release", "Associated Types": null, "OFDA\/BHA Response": "No", "Appeal": "No", "Declaration": "No", "AID Contribution ('000 US$)": null, "Magnitude": 920.0, "Magnitude Scale": "Km2", "Latitude": null, "Longitude": null, "River Basin": "Riara", "Start Year": 2002, "Start Month": 11, "Start Day": 17, "End Year": 2002, "End Month": 11, "End Day": 20, "Total Deaths": 12, "No. Injured": null, "No. Affected": 2000, "No. Homeless": null, "Total Affected": 2000, "Reconstruction Costs ('000 US$)": null, "Reconstruction Costs, Adjusted ('000 US$)": null, "Insured Damage ('000 US$)": null, "Insured Damage, Adjusted ('000 US$)": null, "Total Damage ('000 US$)": null, "Total Damage, Adjusted ('000 US$)": null, "CPI": 59.03314408, "Admin Units": [ { "adm2_code": 51333, "adm2_name": "Kiambu" } ], "Entry Date": "2005-09-26", "Last Update": "2023-09-25" }, "geometry": null },
{ "type": "Feature", "properties": { "DisNo.": "2002-0800-KEN", "Historic": "No", "Classification Key": "nat-hyd-flo-riv", "Disaster Group": "Natural", "Disaster Subgroup": "Hydrological", "Disaster Type": "Flood", "Disaster Subtype": "Riverine flood", "External IDs": null, "Event Name": null, "ISO": "KEN", "Country": "Kenya", "Subregion": "Sub-Saharan Africa", "Region": "Africa", "Location": "Marigat area (Baringo district, Rift Valley province)", "Origin": "Heavy rain", "Associated Types": null, "OFDA\/BHA Response": "No", "Appeal": "No", "Declaration": "No", "AID Contribution ('000 US$)": null, "Magnitude": 750.0, "Magnitude Scale": "Km2", "Latitude": null, "Longitude": null, "River Basin": "Perkerra", "Start Year": 2002, "Start Month": 12, "Start Day": 21, "End Year": 2002, "End Month": 12, "End Day": 23, "Total Deaths": 6, "No. Injured": null, "No. Affected": 3000, "No. Homeless": null, "Total Affected": 3000, "Reconstruction Costs ('000 US$)": null, "Reconstruction Costs, Adjusted ('000 US$)": null, "Insured Damage ('000 US$)": null, "Insured Damage, Adjusted ('000 US$)": null, "Total Damage ('000 US$)": null, "Total Damage, Adjusted ('000 US$)": null, "CPI": 59.03314408, "Admin Units": [ { "adm2_code": 51377, "adm2_name": "Baringo" } ], "Entry Date": "2005-09-26", "Last Update": "2023-09-25" }, "geometry": null },
{ "type": "Feature", "properties": { "DisNo.": "2003-0204-KEN", "Historic": "No", "Classification Key": "nat-hyd-flo-riv", "Disaster Group": "Natural", "Disaster Subgroup": "Hydrological", "Disaster Type": "Flood", "Disaster Subtype": "Riverine flood", "External IDs": null, "Event Name": null, "ISO": "KEN", "Country": "Kenya", "Subregion": "Sub-Saharan Africa", "Region": "Africa", "Location": "Nyando, Kisumu, Rachuonyo, Migori districts (Nyanza province), Busia district (Western province)", "Origin": "Heavy rains", "Associated Types": "Broken Dam\/Burst bank|Slide (land, mud, snow, rock)", "OFDA\/BHA Response": "Yes", "Appeal": "No", "Declaration": "Yes", "AID Contribution ('000 US$)": null, "Magnitude": 100.0, "Magnitude Scale": "Km2", "Latitude": null, "Longitude": null, "River Basin": null, "Start Year": 2003, "Start Month": 4, "Start Day": null, "End Year": 2003, "End Month": 5, "End Day": null, "Total Deaths": 40, "No. Injured": null, "No. Affected": 60000, "No. Homeless": null, "Total Affected": 60000, "Reconstruction Costs ('000 US$)": null, "Reconstruction Costs, Adjusted ('000 US$)": null, "Insured Damage ('000 US$)": null, "Insured Damage, Adjusted ('000 US$)": null, "Total Damage ('000 US$)": null, "Total Damage, Adjusted ('000 US$)": null, "CPI": 60.37325107, "Admin Units": [ { "adm2_code": 51369, "adm2_name": "Kisumu" }, { "adm2_code": 51371, "adm2_name": "Migori" }, { "adm2_code": 51373, "adm2_name": "Nyando" }, { "adm2_code": 51374, "adm2_name": "Rachuonyo" }, { "adm2_code": 51396, "adm2_name": "Busia" } ], "Entry Date": "2004-08-09", "Last Update": "2023-09-25" }, "geometry": null },
{ "type": "Feature", "properties": { "DisNo.": "2003-0729-KEN", "Historic": "No", "Classification Key": "nat-hyd-flo-riv", "Disaster Group": "Natural", "Disaster Subgroup": "Hydrological", "Disaster Type": "Flood", "Disaster Subtype": "Riverine flood", "External IDs": null, "Event Name": null, "ISO": "KEN", "Country": "Kenya", "Subregion": "Sub-Saharan Africa", "Region": "Africa", "Location": "Kisumu district (Nyanza province)", "Origin": "Heavy rains", "Associated Types": null, "OFDA\/BHA Response": "No", "Appeal": "No", "Declaration": "No", "AID Contribution ('000 US$)": null, "Magnitude": 390.0, "Magnitude Scale": "Km2", "Latitude": null, "Longitude": null, "River Basin": "Auji", "Start Year": 2003, "Start Month": 1, "Start Day": 4, "End Year": 2003, "End Month": 1, "End Day": 6, "Total Deaths": null, "No. Injured": null, "No. Affected": 300, "No. Homeless": null, "Total Affected": 300, "Reconstruction Costs ('000 US$)": null, "Reconstruction Costs, Adjusted ('000 US$)": null, "Insured Damage ('000 US$)": null, "Insured Damage, Adjusted ('000 US$)": null, "Total Damage ('000 US$)": null, "Total Damage, Adjusted ('000 US$)": null, "CPI": 60.37325107, "Admin Units": [ { "adm2_code": 51369, "adm2_name": "Kisumu" } ], "Entry Date": "2004-02-26", "Last Update": "2023-09-25" }, "geometry": null },
{ "type": "Feature", "properties": { "DisNo.": "2004-0152-KEN", "Historic": "No", "Classification Key": "nat-hyd-flo-fla", "Disaster Group": "Natural", "Disaster Subgroup": "Hydrological", "Disaster Type": "Flood", "Disaster Subtype": "Flash flood", "External IDs": null, "Event Name": null, "ISO": "KEN", "Country": "Kenya", "Subregion": "Sub-Saharan Africa", "Region": "Africa", "Location": "Nyando district (Nyanza province), Busia district (Western province)", "Origin": "Heavy rain", "Associated Types": null, "OFDA\/BHA Response": "No", "Appeal": "No", "Declaration": "No", "AID Contribution ('000 US$)": null, "Magnitude": 8880.0, "Magnitude Scale": "Km2", "Latitude": null, "Longitude": null, "River Basin": "Nyando", "Start Year": 2004, "Start Month": 4, "Start Day": 9, "End Year": 2004, "End Month": 4, "End Day": 12, "Total Deaths": 4, "No. Injured": null, "No. Affected": 2000, "No. Homeless": null, "Total Affected": 2000, "Reconstruction Costs ('000 US$)": null, "Reconstruction Costs, Adjusted ('000 US$)": null, "Insured Damage ('000 US$)": null, "Insured Damage, Adjusted ('000 US$)": null, "Total Damage ('000 US$)": null, "Total Damage, Adjusted ('000 US$)": null, "CPI": 61.98958593, "Admin Units": [ { "adm2_code": 51373, "adm2_name": "Nyando" }, { "adm2_code": 51396, "adm2_name": "Busia" } ], "Entry Date": "2004-04-14", "Last Update": "2023-09-25" }, "geometry": null },
{ "type": "Feature", "properties": { "DisNo.": "2004-0194-KEN", "Historic": "No", "Classification Key": "nat-hyd-flo-riv", "Disaster Group": "Natural", "Disaster Subgroup": "Hydrological", "Disaster Type": "Flood", "Disaster Subtype": "Riverine flood", "External IDs": null, "Event Name": null, "ISO": "KEN", "Country": "Kenya", "Subregion": "Sub-Saharan Africa", "Region": "Africa", "Location": "Nairobi district (Nairobi province), Tana River, Taita Taveta districts (Coast province), Nakuru, Baringo, Turkana, Marakwet districts (Rift Valley province), Machakos district (Eastern province), Nyamira, Nyando, Rachuonyo, Kisumu, Migori, Homa Bay districts (Nyanza province)", "Origin": "Heavy rains", "Associated Types": "Slide (land, mud, snow, rock)", "OFDA\/BHA Response": "No", "Appeal": "No", "Declaration": "No", "AID Contribution ('000 US$)": null, "Magnitude": 268300.0, "Magnitude Scale": "Km2", "Latitude": null, "Longitude": null, "River Basin": "Nyando, Mahenya, Sondu-Miriu, Sio, Awach, Ombeyi, Migori and Kuja, Tonde, Chemoron, Endao, Miriu, Athi, Nzoia, Thirikwa, Ndarugu, Thiriku, Ruamuthambi, Kirichwa, Ruarakaother, Athi", "Start Year": 2004, "Start Month": 4, "Start Day": 9, "End Year": 2004, "End Month": 5, "End Day": 11, "Total Deaths": 50, "No. Injured": null, "No. Affected": 10000, "No. Homeless": null, "Total Affected": 10000, "Reconstruction Costs ('000 US$)": null, "Reconstruction Costs, Adjusted ('000 US$)": null, "Insured Damage ('000 US$)": null, "Insured Damage, Adjusted ('000 US$)": null, "Total Damage ('000 US$)": null, "Total Damage, Adjusted ('000 US$)": null, "CPI": 61.98958593, "Admin Units": [ { "adm2_code": 51345, "adm2_name": "Taita Taveta" }, { "adm2_code": 51346, "adm2_name": "Tana River" }, { "adm2_code": 51350, "adm2_name": "Machakos" }, { "adm2_code": 51360, "adm2_name": "Nairobi" }, { "adm2_code": 51368, "adm2_name": "Homa Bay" }, { "adm2_code": 51369, "adm2_name": "Kisumu" }, { "adm2_code": 51371, "adm2_name": "Migori" }, { "adm2_code": 51372, "adm2_name": "Nyamira" }, { "adm2_code": 51373, "adm2_name": "Nyando" }, { "adm2_code": 51374, "adm2_name": "Rachuonyo" }, { "adm2_code": 51377, "adm2_name": "Baringo" }, { "adm2_code": 51385, "adm2_name": "Marakwet" }, { "adm2_code": 51386, "adm2_name": "Nakuru" }, { "adm2_code": 51392, "adm2_name": "Turkana" } ], "Entry Date": "2004-07-07", "Last Update": "2023-09-25" }, "geometry": null },
{ "type": "Feature", "properties": { "DisNo.": "2005-0215-KEN", "Historic": "No", "Classification Key": "nat-hyd-flo-fla", "Disaster Group": "Natural", "Disaster Subgroup": "Hydrological", "Disaster Type": "Flood", "Disaster Subtype": "Flash flood", "External IDs": null, "Event Name": null, "ISO": "KEN", "Country": "Kenya", "Subregion": "Sub-Saharan Africa", "Region": "Africa", "Location": "Isiolo district (Eastern province), Garissa district (North Eastern province), Western, Nyanza provinces", "Origin": "Heavy rains", "Associated Types": null, "OFDA\/BHA Response": "No", "Appeal": "No", "Declaration": "No", "AID Contribution ('000 US$)": null, "Magnitude": null, "Magnitude Scale": "Km2", "Latitude": null, "Longitude": null, "River Basin": null, "Start Year": 2005, "Start Month": 4, "Start Day": 23, "End Year": 2005, "End Month": 4, "End Day": 26, "Total Deaths": 1, "No. Injured": null, "No. Affected": 25000, "No. Homeless": null, "Total Affected": 25000, "Reconstruction Costs ('000 US$)": null, "Reconstruction Costs, Adjusted ('000 US$)": null, "Insured Damage ('000 US$)": null, "Insured Damage, Adjusted ('000 US$)": null, "Total Damage ('000 US$)": 500, "Total Damage, Adjusted ('000 US$)": 780, "CPI": 64.09274026, "Admin Units": [ { "adm1_code": 51330, "adm1_name": "Nyanza" }, { "adm1_code": 51332, "adm1_name": "Western" }, { "adm2_code": 51348, "adm2_name": "Isiolo" }, { "adm2_code": 51361, "adm2_name": "Garissa" } ], "Entry Date": "2005-06-03", "Last Update": "2023-09-25" }, "geometry": null },
{ "type": "Feature", "properties": { "DisNo.": "2005-0260-KEN", "Historic": "No", "Classification Key": "nat-hyd-flo-fla", "Disaster Group": "Natural", "Disaster Subgroup": "Hydrological", "Disaster Type": "Flood", "Disaster Subtype": "Flash flood", "External IDs": null, "Event Name": null, "ISO": "KEN", "Country": "Kenya", "Subregion": "Sub-Saharan Africa", "Region": "Africa", "Location": "Dadaab town (Garissa district, North Eastern province), Rift Valley, Western provinces", "Origin": "Heavy rains", "Associated Types": null, "OFDA\/BHA Response": "No", "Appeal": "No", "Declaration": "No", "AID Contribution ('000 US$)": null, "Magnitude": null, "Magnitude Scale": "Km2", "Latitude": null, "Longitude": null, "River Basin": null, "Start Year": 2005, "Start Month": 5, "Start Day": 18, "End Year": 2005, "End Month": 5, "End Day": 24, "Total Deaths": 5, "No. Injured": null, "No. Affected": 10000, "No. Homeless": null, "Total Affected": 10000, "Reconstruction Costs ('000 US$)": null, "Reconstruction Costs, Adjusted ('000 US$)": null, "Insured Damage ('000 US$)": null, "Insured Damage, Adjusted ('000 US$)": null, "Total Damage ('000 US$)": null, "Total Damage, Adjusted ('000 US$)": null, "CPI": 64.09274026, "Admin Units": [ { "adm1_code": 51331, "adm1_name": "Rift Valley" }, { "adm1_code": 51332, "adm1_name": "Western" }, { "adm2_code": 51361, "adm2_name": "Garissa" } ], "Entry Date": "2005-06-03", "Last Update": "2023-09-25" }, "geometry": null },
{ "type": "Feature", "properties": { "DisNo.": "2005-0526-KEN", "Historic": "No", "Classification Key": "nat-hyd-flo-riv", "Disaster Group": "Natural", "Disaster Subgroup": "Hydrological", "Disaster Type": "Flood", "Disaster Subtype": "Riverine flood", "External IDs": null, "Event Name": null, "ISO": "KEN", "Country": "Kenya", "Subregion": "Sub-Saharan Africa", "Region": "Africa", "Location": "Bukhay, Walwasi areas (Busia district, Western province)", "Origin": "Heavy rain", "Associated Types": null, "OFDA\/BHA Response": "No", "Appeal": "No", "Declaration": "No", "AID Contribution ('000 US$)": null, "Magnitude": 3520.0, "Magnitude Scale": "Km2", "Latitude": null, "Longitude": null, "River Basin": null, "Start Year": 2005, "Start Month": 6, "Start Day": 17, "End Year": 2005, "End Month": 6, "End Day": 20, "Total Deaths": 20, "No. Injured": null, "No. Affected": 1200, "No. Homeless": null, "Total Affected": 1200, "Reconstruction Costs ('000 US$)": null, "Reconstruction Costs, Adjusted ('000 US$)": null, "Insured Damage ('000 US$)": null, "Insured Damage, Adjusted ('000 US$)": null, "Total Damage ('000 US$)": null, "Total Damage, Adjusted ('000 US$)": null, "CPI": 64.09274026, "Admin Units": [ { "adm2_code": 51396, "adm2_name": "Busia" } ], "Entry Date": "2005-09-13", "Last Update": "2023-09-25" }, "geometry": null },
{ "type": "Feature", "properties": { "DisNo.": "2006-0178-KEN", "Historic": "No", "Classification Key": "nat-hyd-flo-riv", "Disaster Group": "Natural", "Disaster Subgroup": "Hydrological", "Disaster Type": "Flood", "Disaster Subtype": "Riverine flood", "External IDs": null, "Event Name": null, "ISO": "KEN", "Country": "Kenya", "Subregion": "Sub-Saharan Africa", "Region": "Africa", "Location": "Isiolo, Moyale districts (Eastern province), Nairobi districts (Nairobi province)", "Origin": "Heavy rains", "Associated Types": null, "OFDA\/BHA Response": "No", "Appeal": "No", "Declaration": "No", "AID Contribution ('000 US$)": null, "Magnitude": 538000.0, "Magnitude Scale": "Km2", "Latitude": 2.25, "Longitude": 37.53, "River Basin": "Uaso Nyiro, Sabaki, Tana, Migori, Kuja, Nzoia, Nyando, Genale Wenz", "Start Year": 2006, "Start Month": 4, "Start Day": 4, "End Year": 2006, "End Month": 5, "End Day": 22, "Total Deaths": 60, "No. Injured": null, "No. Affected": 17300, "No. Homeless": null, "Total Affected": 17300, "Reconstruction Costs ('000 US$)": null, "Reconstruction Costs, Adjusted ('000 US$)": null, "Insured Damage ('000 US$)": null, "Insured Damage, Adjusted ('000 US$)": null, "Total Damage ('000 US$)": null, "Total Damage, Adjusted ('000 US$)": null, "CPI": 66.16033056000001, "Admin Units": [ { "adm2_code": 51348, "adm2_name": "Isiolo" }, { "adm2_code": 51357, "adm2_name": "Moyale" }, { "adm2_code": 51360, "adm2_name": "Nairobi" } ], "Entry Date": "2007-01-04", "Last Update": "2023-09-25" }, "geometry": { "type": "Point", "coordinates": [ 37.53, 2.25 ] } },
{ "type": "Feature", "properties": { "DisNo.": "2006-0234-KEN", "Historic": "No", "Classification Key": "nat-hyd-flo-riv", "Disaster Group": "Natural", "Disaster Subgroup": "Hydrological", "Disaster Type": "Flood", "Disaster Subtype": "Riverine flood", "External IDs": null, "Event Name": null, "ISO": "KEN", "Country": "Kenya", "Subregion": "Sub-Saharan Africa", "Region": "Africa", "Location": "Nyanza, Coast, Western provinces", "Origin": "Heavy rain", "Associated Types": null, "OFDA\/BHA Response": "No", "Appeal": "No", "Declaration": "No", "AID Contribution ('000 US$)": null, "Magnitude": null, "Magnitude Scale": "Km2", "Latitude": null, "Longitude": null, "River Basin": null, "Start Year": 2006, "Start Month": 4, "Start Day": 25, "End Year": 2006, "End Month": 5, "End Day": 4, "Total Deaths": 8, "No. Injured": null, "No. Affected": 13000, "No. Homeless": null, "Total Affected": 13000, "Reconstruction Costs ('000 US$)": null, "Reconstruction Costs, Adjusted ('000 US$)": null, "Insured Damage ('000 US$)": null, "Insured Damage, Adjusted ('000 US$)": null, "Total Damage ('000 US$)": null, "Total Damage, Adjusted ('000 US$)": null, "CPI": 66.16033056000001, "Admin Units": [ { "adm1_code": 51326, "adm1_name": "Coast" }, { "adm1_code": 51330, "adm1_name": "Nyanza" }, { "adm1_code": 51332, "adm1_name": "Western" } ], "Entry Date": "2006-05-08", "Last Update": "2023-09-25" }, "geometry": null },
{ "type": "Feature", "properties": { "DisNo.": "2006-0587-KEN", "Historic": "No", "Classification Key": "nat-hyd-flo-riv", "Disaster Group": "Natural", "Disaster Subgroup": "Hydrological", "Disaster Type": "Flood", "Disaster Subtype": "Riverine flood", "External IDs": null, "Event Name": null, "ISO": "KEN", "Country": "Kenya", "Subregion": "Sub-Saharan Africa", "Region": "Africa", "Location": "Moyale, Isiolo districts (Eastern province), Mandera, Garissa, Wajir districts (North Eastern province), Turkana district (Rift Valley province), Kwale, Mombasa districts (Coast province)", "Origin": "Heavy rain", "Associated Types": null, "OFDA\/BHA Response": "No", "Appeal": "No", "Declaration": "No", "AID Contribution ('000 US$)": null, "Magnitude": null, "Magnitude Scale": "Km2", "Latitude": -3.24, "Longitude": 40.01, "River Basin": "Ewaso Nyiro", "Start Year": 2006, "Start Month": 10, "Start Day": 15, "End Year": 2006, "End Month": 10, "End Day": 26, "Total Deaths": 30, "No. Injured": null, "No. Affected": 30000, "No. Homeless": null, "Total Affected": 30000, "Reconstruction Costs ('000 US$)": null, "Reconstruction Costs, Adjusted ('000 US$)": null, "Insured Damage ('000 US$)": null, "Insured Damage, Adjusted ('000 US$)": null, "Total Damage ('000 US$)": null, "Total Damage, Adjusted ('000 US$)": null, "CPI": 66.16033056000001, "Admin Units": [ { "adm2_code": 51341, "adm2_name": "Kwale" }, { "adm2_code": 51344, "adm2_name": "Mombasa" }, { "adm2_code": 51348, "adm2_name": "Isiolo" }, { "adm2_code": 51357, "adm2_name": "Moyale" }, { "adm2_code": 51361, "adm2_name": "Garissa" }, { "adm2_code": 51363, "adm2_name": "Mandera" }, { "adm2_code": 51364, "adm2_name": "Wajir" }, { "adm2_code": 51392, "adm2_name": "Turkana" } ], "Entry Date": "2007-01-07", "Last Update": "2023-09-25" }, "geometry": { "type": "Point", "coordinates": [ 40.01, -3.24 ] } },
{ "type": "Feature", "properties": { "DisNo.": "2006-0624-KEN", "Historic": "No", "Classification Key": "nat-hyd-flo-riv", "Disaster Group": "Natural", "Disaster Subgroup": "Hydrological", "Disaster Type": "Flood", "Disaster Subtype": "Riverine flood", "External IDs": null, "Event Name": null, "ISO": "KEN", "Country": "Kenya", "Subregion": "Sub-Saharan Africa", "Region": "Africa", "Location": "Garissa, Ijara, Wajir, Mandera districts (North Eastern province), Kilifi, Tana River, Kwale districts (Coast province), Moyale, Isiolo districts (Eastern province), Busia district (Western province), Turkana district (Rift Valley province), Kisumu district (Nyanza province)", "Origin": "Torrential rain", "Associated Types": null, "OFDA\/BHA Response": "No", "Appeal": "No", "Declaration": "No", "AID Contribution ('000 US$)": 50041, "Magnitude": null, "Magnitude Scale": "Km2", "Latitude": null, "Longitude": null, "River Basin": null, "Start Year": 2006, "Start Month": 10, "Start Day": 23, "End Year": 2006, "End Month": 12, "End Day": 19, "Total Deaths": 114, "No. Injured": null, "No. Affected": 723000, "No. Homeless": null, "Total Affected": 723000, "Reconstruction Costs ('000 US$)": null, "Reconstruction Costs, Adjusted ('000 US$)": null, "Insured Damage ('000 US$)": null, "Insured Damage, Adjusted ('000 US$)": null, "Total Damage ('000 US$)": null, "Total Damage, Adjusted ('000 US$)": null, "CPI": 66.16033056000001, "Admin Units": [ { "adm2_code": 51340, "adm2_name": "Kilifi" }, { "adm2_code": 51341, "adm2_name": "Kwale" }, { "adm2_code": 51346, "adm2_name": "Tana River" }, { "adm2_code": 51348, "adm2_name": "Isiolo" }, { "adm2_code": 51357, "adm2_name": "Moyale" }, { "adm2_code": 51361, "adm2_name": "Garissa" }, { "adm2_code": 51362, "adm2_name": "Ijara" }, { "adm2_code": 51363, "adm2_name": "Mandera" }, { "adm2_code": 51364, "adm2_name": "Wajir" }, { "adm2_code": 51369, "adm2_name": "Kisumu" }, { "adm2_code": 51392, "adm2_name": "Turkana" }, { "adm2_code": 51396, "adm2_name": "Busia" } ], "Entry Date": "2007-01-07", "Last Update": "2023-09-25" }, "geometry": null },
{ "type": "Feature", "properties": { "DisNo.": "2007-0177-KEN", "Historic": "No", "Classification Key": "nat-hyd-flo-riv", "Disaster Group": "Natural", "Disaster Subgroup": "Hydrological", "Disaster Type": "Flood", "Disaster Subtype": "Riverine flood", "External IDs": "GLIDE:FL-2007-000076", "Event Name": null, "ISO": "KEN", "Country": "Kenya", "Subregion": "Sub-Saharan Africa", "Region": "Africa", "Location": "Mombasa, Malindi, Kwale, Kilifi, Lamu districts (Coast provinces)", "Origin": "Heavy rain", "Associated Types": null, "OFDA\/BHA Response": "No", "Appeal": "No", "Declaration": "No", "AID Contribution ('000 US$)": null, "Magnitude": 13870.0, "Magnitude Scale": "Km2", "Latitude": -3.59, "Longitude": 39.76, "River Basin": "Mwakuhenga, Mkuru", "Start Year": 2007, "Start Month": 5, "Start Day": 15, "End Year": 2007, "End Month": 6, "End Day": 11, "Total Deaths": 2, "No. Injured": 1, "No. Affected": 650, "No. Homeless": null, "Total Affected": 651, "Reconstruction Costs ('000 US$)": null, "Reconstruction Costs, Adjusted ('000 US$)": null, "Insured Damage ('000 US$)": null, "Insured Damage, Adjusted ('000 US$)": null, "Total Damage ('000 US$)": null, "Total Damage, Adjusted ('000 US$)": null, "CPI": 68.04767383, "Admin Units": [ { "adm2_code": 51340, "adm2_name": "Kilifi" }, { "adm2_code": 51341, "adm2_name": "Kwale" }, { "adm2_code": 51342, "adm2_name": "Lamu" }, { "adm2_code": 51343, "adm2_name": "Malindi" }, { "adm2_code": 51344, "adm2_name": "Mombasa" } ], "Entry Date": "2008-08-04", "Last Update": "2023-09-25" }, "geometry": { "type": "Point", "coordinates": [ 39.76, -3.59 ] } },
{ "type": "Feature", "properties": { "DisNo.": "2007-0408-KEN", "Historic": "No", "Classification Key": "nat-hyd-flo-riv", "Disaster Group": "Natural", "Disaster Subgroup": "Hydrological", "Disaster Type": "Flood", "Disaster Subtype": "Riverine flood", "External IDs": "GLIDE:FL-2007-000138", "Event Name": null, "ISO": "KEN", "Country": "Kenya", "Subregion": "Sub-Saharan Africa", "Region": "Africa", "Location": "Busia district (Western province)", "Origin": "heavy rain", "Associated Types": "Broken Dam\/Burst bank", "OFDA\/BHA Response": "No", "Appeal": "No", "Declaration": "No", "AID Contribution ('000 US$)": null, "Magnitude": 53520.0, "Magnitude Scale": "Km2", "Latitude": 0.88, "Longitude": 34.28, "River Basin": "Kenya-Nzoia, Sabwani, Malakisi, Malaba", "Start Year": 2007, "Start Month": 8, "Start Day": 15, "End Year": 2007, "End Month": 10, "End Day": 31, "Total Deaths": 13, "No. Injured": null, "No. Affected": 40000, "No. Homeless": null, "Total Affected": 40000, "Reconstruction Costs ('000 US$)": null, "Reconstruction Costs, Adjusted ('000 US$)": null, "Insured Damage ('000 US$)": null, "Insured Damage, Adjusted ('000 US$)": null, "Total Damage ('000 US$)": null, "Total Damage, Adjusted ('000 US$)": null, "CPI": 68.04767383, "Admin Units": [ { "adm2_code": 51396, "adm2_name": "Busia" } ], "Entry Date": "2008-08-04", "Last Update": "2023-09-25" }, "geometry": { "type": "Point", "coordinates": [ 34.28, 0.88 ] } },
{ "type": "Feature", "properties": { "DisNo.": "2007-0613-KEN", "Historic": "No", "Classification Key": "nat-hyd-flo-riv", "Disaster Group": "Natural", "Disaster Subgroup": "Hydrological", "Disaster Type": "Flood", "Disaster Subtype": "Riverine flood", "External IDs": null, "Event Name": null, "ISO": "KEN", "Country": "Kenya", "Subregion": "Sub-Saharan Africa", "Region": "Africa", "Location": "Taita Taveta district (Coast province)", "Origin": "Heavy rains", "Associated Types": "Slide (land, mud, snow, rock)", "OFDA\/BHA Response": "No", "Appeal": "No", "Declaration": "No", "AID Contribution ('000 US$)": null, "Magnitude": 6200.0, "Magnitude Scale": "Km2", "Latitude": -3.61, "Longitude": 38.69, "River Basin": null, "Start Year": 2007, "Start Month": 12, "Start Day": 12, "End Year": 2007, "End Month": 12, "End Day": 15, "Total Deaths": 4, "No. Injured": null, "No. Affected": 2000, "No. Homeless": null, "Total Affected": 2000, "Reconstruction Costs ('000 US$)": null, "Reconstruction Costs, Adjusted ('000 US$)": null, "Insured Damage ('000 US$)": null, "Insured Damage, Adjusted ('000 US$)": null, "Total Damage ('000 US$)": null, "Total Damage, Adjusted ('000 US$)": null, "CPI": 68.04767383, "Admin Units": [ { "adm2_code": 51345, "adm2_name": "Taita Taveta" } ], "Entry Date": "2008-01-01", "Last Update": "2023-09-25" }, "geometry": { "type": "Point", "coordinates": [ 38.69, -3.61 ] } },
{ "type": "Feature", "properties": { "DisNo.": "2008-0127-KEN", "Historic": "No", "Classification Key": "nat-hyd-flo-riv", "Disaster Group": "Natural", "Disaster Subgroup": "Hydrological", "Disaster Type": "Flood", "Disaster Subtype": "Riverine flood", "External IDs": null, "Event Name": null, "ISO": "KEN", "Country": "Kenya", "Subregion": "Sub-Saharan Africa", "Region": "Africa", "Location": "Taita Taveta district (Coast province)", "Origin": "Heavy rain", "Associated Types": null, "OFDA\/BHA Response": "No", "Appeal": "No", "Declaration": "No", "AID Contribution ('000 US$)": null, "Magnitude": 12190.0, "Magnitude Scale": "Km2", "Latitude": -3.38, "Longitude": 38.17, "River Basin": "Voi, Lumi, Ruvu, Lake Jipe tributaries", "Start Year": 2008, "Start Month": 3, "Start Day": 17, "End Year": 2008, "End Month": 4, "End Day": 5, "Total Deaths": null, "No. Injured": null, "No. Affected": 700, "No. Homeless": null, "Total Affected": 700, "Reconstruction Costs ('000 US$)": null, "Reconstruction Costs, Adjusted ('000 US$)": null, "Insured Damage ('000 US$)": null, "Insured Damage, Adjusted ('000 US$)": null, "Total Damage ('000 US$)": null, "Total Damage, Adjusted ('000 US$)": null, "CPI": 70.66008903, "Admin Units": [ { "adm2_code": 51345, "adm2_name": "Taita Taveta" } ], "Entry Date": "2008-04-28", "Last Update": "2023-09-25" }, "geometry": { "type": "Point", "coordinates": [ 38.17, -3.38 ] } },
{ "type": "Feature", "properties": { "DisNo.": "2008-0129-KEN", "Historic": "No", "Classification Key": "nat-hyd-flo-flo", "Disaster Group": "Natural", "Disaster Subgroup": "Hydrological", "Disaster Type": "Flood", "Disaster Subtype": "Flood (General)", "External IDs": null, "Event Name": null, "ISO": "KEN", "Country": "Kenya", "Subregion": "Sub-Saharan Africa", "Region": "Africa", "Location": "Chalbi area (Marsabit district, Eastern province), Rachuonyo district (Nyanza province)", "Origin": "Heavy rain", "Associated Types": null, "OFDA\/BHA Response": "No", "Appeal": "No", "Declaration": "No", "AID Contribution ('000 US$)": null, "Magnitude": 21280.0, "Magnitude Scale": "Km2", "Latitude": 2.83, "Longitude": 37.67, "River Basin": null, "Start Year": 2008, "Start Month": 3, "Start Day": 20, "End Year": 2008, "End Month": 4, "End Day": 2, "Total Deaths": 2, "No. Injured": null, "No. Affected": 10000, "No. Homeless": null, "Total Affected": 10000, "Reconstruction Costs ('000 US$)": null, "Reconstruction Costs, Adjusted ('000 US$)": null, "Insured Damage ('000 US$)": null, "Insured Damage, Adjusted ('000 US$)": null, "Total Damage ('000 US$)": null, "Total Damage, Adjusted ('000 US$)": null, "CPI": 70.66008903, "Admin Units": [ { "adm2_code": 51352, "adm2_name": "Marsabit" }, { "adm2_code": 51374, "adm2_name": "Rachuonyo" } ], "Entry Date": "2008-04-15", "Last Update": "2023-09-25" }, "geometry": { "type": "Point", "coordinates": [ 37.67, 2.83 ] } },
{ "type": "Feature", "properties": { "DisNo.": "2008-0260-KEN", "Historic": "No", "Classification Key": "nat-hyd-flo-riv", "Disaster Group": "Natural", "Disaster Subgroup": "Hydrological", "Disaster Type": "Flood", "Disaster Subtype": "Riverine flood", "External IDs": "GLIDE:FL-2008-000092", "Event Name": null, "ISO": "KEN", "Country": "Kenya", "Subregion": "Sub-Saharan Africa", "Region": "Africa", "Location": "Tana river delta area (Tana River district, Coast province)", "Origin": null, "Associated Types": null, "OFDA\/BHA Response": "No", "Appeal": "No", "Declaration": "No", "AID Contribution ('000 US$)": null, "Magnitude": 41800.0, "Magnitude Scale": "Km2", "Latitude": -1.57, "Longitude": 40.12, "River Basin": null, "Start Year": 2008, "Start Month": 6, "Start Day": 13, "End Year": 2008, "End Month": 6, "End Day": 20, "Total Deaths": 16, "No. Injured": null, "No. Affected": 8658, "No. Homeless": null, "Total Affected": 8658, "Reconstruction Costs ('000 US$)": null, "Reconstruction Costs, Adjusted ('000 US$)": null, "Insured Damage ('000 US$)": null, "Insured Damage, Adjusted ('000 US$)": null, "Total Damage ('000 US$)": null, "Total Damage, Adjusted ('000 US$)": null, "CPI": 70.66008903, "Admin Units": [ { "adm2_code": 51346, "adm2_name": "Tana River" } ], "Entry Date": "2008-08-24", "Last Update": "2023-09-25" }, "geometry": { "type": "Point", "coordinates": [ 40.12, -1.57 ] } },
{ "type": "Feature", "properties": { "DisNo.": "2008-0482-KEN", "Historic": "No", "Classification Key": "nat-hyd-flo-fla", "Disaster Group": "Natural", "Disaster Subgroup": "Hydrological", "Disaster Type": "Flood", "Disaster Subtype": "Flash flood", "External IDs": null, "Event Name": null, "ISO": "KEN", "Country": "Kenya", "Subregion": "Sub-Saharan Africa", "Region": "Africa", "Location": "Mandera district (North Eastern province)", "Origin": "Heavy rain", "Associated Types": null, "OFDA\/BHA Response": "No", "Appeal": "No", "Declaration": "No", "AID Contribution ('000 US$)": 202, "Magnitude": 45130.0, "Magnitude Scale": "Km2", "Latitude": 4.0, "Longitude": 41.9, "River Basin": "Daua", "Start Year": 2008, "Start Month": 10, "Start Day": 14, "End Year": 2008, "End Month": 10, "End Day": 16, "Total Deaths": 3, "No. Injured": null, "No. Affected": 6000, "No. Homeless": null, "Total Affected": 6000, "Reconstruction Costs ('000 US$)": null, "Reconstruction Costs, Adjusted ('000 US$)": null, "Insured Damage ('000 US$)": null, "Insured Damage, Adjusted ('000 US$)": null, "Total Damage ('000 US$)": null, "Total Damage, Adjusted ('000 US$)": null, "CPI": 70.66008903, "Admin Units": [ { "adm2_code": 51363, "adm2_name": "Mandera" } ], "Entry Date": "2008-10-22", "Last Update": "2023-09-25" }, "geometry": { "type": "Point", "coordinates": [ 41.9, 4.0 ] } },
{ "type": "Feature", "properties": { "DisNo.": "2008-0483-KEN", "Historic": "No", "Classification Key": "nat-hyd-flo-riv", "Disaster Group": "Natural", "Disaster Subgroup": "Hydrological", "Disaster Type": "Flood", "Disaster Subtype": "Riverine flood", "External IDs": null, "Event Name": null, "ISO": "KEN", "Country": "Kenya", "Subregion": "Sub-Saharan Africa", "Region": "Africa", "Location": "Katilu area (Turkana district, Rift Valley province)", "Origin": "Hevay rains", "Associated Types": null, "OFDA\/BHA Response": "No", "Appeal": "No", "Declaration": "No", "AID Contribution ('000 US$)": null, "Magnitude": null, "Magnitude Scale": "Km2", "Latitude": null, "Longitude": null, "River Basin": "Turkwel river", "Start Year": 2008, "Start Month": 10, "Start Day": 4, "End Year": 2008, "End Month": 10, "End Day": 7, "Total Deaths": 17, "No. Injured": null, "No. Affected": 6310, "No. Homeless": null, "Total Affected": 6310, "Reconstruction Costs ('000 US$)": null, "Reconstruction Costs, Adjusted ('000 US$)": null, "Insured Damage ('000 US$)": null, "Insured Damage, Adjusted ('000 US$)": null, "Total Damage ('000 US$)": null, "Total Damage, Adjusted ('000 US$)": null, "CPI": 70.66008903, "Admin Units": [ { "adm2_code": 51392, "adm2_name": "Turkana" } ], "Entry Date": "2008-10-22", "Last Update": "2023-09-25" }, "geometry": null },
{ "type": "Feature", "properties": { "DisNo.": "2008-0518-KEN", "Historic": "No", "Classification Key": "nat-hyd-flo-riv", "Disaster Group": "Natural", "Disaster Subgroup": "Hydrological", "Disaster Type": "Flood", "Disaster Subtype": "Riverine flood", "External IDs": "GLIDE:FL-2008-000217", "Event Name": null, "ISO": "KEN", "Country": "Kenya", "Subregion": "Sub-Saharan Africa", "Region": "Africa", "Location": "Busia district (Western province), Mandera, Garissa, Wajir districts (North Western province), Marakwet, Trans Nzoia districts (Rift Valley province), Tana River district (Coast province), Migori, Nyando districts (Nyanza province)", "Origin": "Heavy rains", "Associated Types": "Slide (land, mud, snow, rock)", "OFDA\/BHA Response": "No", "Appeal": "No", "Declaration": "No", "AID Contribution ('000 US$)": null, "Magnitude": 37960.0, "Magnitude Scale": "Km2", "Latitude": 0.05, "Longitude": 35.12, "River Basin": "Nzoia river", "Start Year": 2008, "Start Month": 11, "Start Day": 10, "End Year": 2008, "End Month": 11, "End Day": 25, "Total Deaths": 17, "No. Injured": null, "No. Affected": 30770, "No. Homeless": null, "Total Affected": 30770, "Reconstruction Costs ('000 US$)": null, "Reconstruction Costs, Adjusted ('000 US$)": null, "Insured Damage ('000 US$)": null, "Insured Damage, Adjusted ('000 US$)": null, "Total Damage ('000 US$)": null, "Total Damage, Adjusted ('000 US$)": null, "CPI": 70.66008903, "Admin Units": [ { "adm2_code": 51346, "adm2_name": "Tana River" }, { "adm2_code": 51361, "adm2_name": "Garissa" }, { "adm2_code": 51363, "adm2_name": "Mandera" }, { "adm2_code": 51364, "adm2_name": "Wajir" }, { "adm2_code": 51385, "adm2_name": "Marakwet" }, { "adm2_code": 51391, "adm2_name": "Trans Nzoia" }, { "adm2_code": 51396, "adm2_name": "Busia" } ], "Entry Date": "2008-11-26", "Last Update": "2023-09-25" }, "geometry": { "type": "Point", "coordinates": [ 35.12, 0.05 ] } },
{ "type": "Feature", "properties": { "DisNo.": "2009-0494-KEN", "Historic": "No", "Classification Key": "nat-hyd-flo-riv", "Disaster Group": "Natural", "Disaster Subgroup": "Hydrological", "Disaster Type": "Flood", "Disaster Subtype": "Riverine flood", "External IDs": null, "Event Name": null, "ISO": "KEN", "Country": "Kenya", "Subregion": "Sub-Saharan Africa", "Region": "Africa", "Location": "Mandera district (North Eastern province), Malindi, Tana River districts (Coast province), Nyanza, Western provinces", "Origin": "El Nino, exceptional heavy rains", "Associated Types": "Slide (land, mud, snow, rock)", "OFDA\/BHA Response": "No", "Appeal": "No", "Declaration": "No", "AID Contribution ('000 US$)": null, "Magnitude": null, "Magnitude Scale": "Km2", "Latitude": null, "Longitude": null, "River Basin": "Tana River", "Start Year": 2009, "Start Month": 10, "Start Day": 29, "End Year": 2009, "End Month": 11, "End Day": 4, "Total Deaths": 16, "No. Injured": null, "No. Affected": 44850, "No. Homeless": null, "Total Affected": 44850, "Reconstruction Costs ('000 US$)": null, "Reconstruction Costs, Adjusted ('000 US$)": null, "Insured Damage ('000 US$)": null, "Insured Damage, Adjusted ('000 US$)": null, "Total Damage ('000 US$)": null, "Total Damage, Adjusted ('000 US$)": null, "CPI": 70.40886176, "Admin Units": [ { "adm1_code": 51330, "adm1_name": "Nyanza" }, { "adm1_code": 51332, "adm1_name": "Western" }, { "adm2_code": 51343, "adm2_name": "Malindi" }, { "adm2_code": 51346, "adm2_name": "Tana River" }, { "adm2_code": 51363, "adm2_name": "Mandera" } ], "Entry Date": "2010-04-12", "Last Update": "2023-09-25" }, "geometry": null },
{ "type": "Feature", "properties": { "DisNo.": "2009-0597-KEN", "Historic": "No", "Classification Key": "nat-hyd-flo-riv", "Disaster Group": "Natural", "Disaster Subgroup": "Hydrological", "Disaster Type": "Flood", "Disaster Subtype": "Riverine flood", "External IDs": "GLIDE:FL-2010-000003", "Event Name": null, "ISO": "KEN", "Country": "Kenya", "Subregion": "Sub-Saharan Africa", "Region": "Africa", "Location": "Nairobi district (Nairobi province), Turkana, Laikipia, Kajiado, Koibatek, Baringo, Narok, West Pokot, Kericho, Keiyo, Marakwet, Samburu, Nakuru districts (Rift Valley province), Kilifi, Tana River, Taita Taveta districts (Coast province), Nyando district (Nyanza province), Kiambu district (Central province), Isiolo, Makueni districts (Eastern province), Homa Bay district (Nyanza province)", "Origin": "Heavy rain", "Associated Types": "Slide (land, mud, snow, rock)", "OFDA\/BHA Response": "No", "Appeal": "No", "Declaration": "No", "AID Contribution ('000 US$)": null, "Magnitude": null, "Magnitude Scale": "Km2", "Latitude": null, "Longitude": null, "River Basin": null, "Start Year": 2009, "Start Month": 12, "Start Day": 24, "End Year": 2010, "End Month": 1, "End Day": 12, "Total Deaths": 40, "No. Injured": null, "No. Affected": 91350, "No. Homeless": null, "Total Affected": 91350, "Reconstruction Costs ('000 US$)": null, "Reconstruction Costs, Adjusted ('000 US$)": null, "Insured Damage ('000 US$)": null, "Insured Damage, Adjusted ('000 US$)": null, "Total Damage ('000 US$)": null, "Total Damage, Adjusted ('000 US$)": null, "CPI": 70.40886176, "Admin Units": [ { "adm2_code": 51333, "adm2_name": "Kiambu" }, { "adm2_code": 51340, "adm2_name": "Kilifi" }, { "adm2_code": 51345, "adm2_name": "Taita Taveta" }, { "adm2_code": 51346, "adm2_name": "Tana River" }, { "adm2_code": 51348, "adm2_name": "Isiolo" }, { "adm2_code": 51351, "adm2_name": "Makueni" }, { "adm2_code": 51360, "adm2_name": "Nairobi" }, { "adm2_code": 51368, "adm2_name": "Homa Bay" }, { "adm2_code": 51373, "adm2_name": "Nyando" }, { "adm2_code": 51377, "adm2_name": "Baringo" }, { "adm2_code": 51380, "adm2_name": "Kajiado" }, { "adm2_code": 51381, "adm2_name": "Keiyo" }, { "adm2_code": 51382, "adm2_name": "Kericho" }, { "adm2_code": 51383, "adm2_name": "Koibatek" }, { "adm2_code": 51384, "adm2_name": "Laikipia" }, { "adm2_code": 51385, "adm2_name": "Marakwet" }, { "adm2_code": 51386, "adm2_name": "Nakuru" }, { "adm2_code": 51388, "adm2_name": "Narok" }, { "adm2_code": 51389, "adm2_name": "Samburu" }, { "adm2_code": 51392, "adm2_name": "Turkana" }, { "adm2_code": 51394, "adm2_name": "West Pokot" } ], "Entry Date": "2011-03-15", "Last Update": "2023-09-25" }, "geometry": null },
{ "type": "Feature", "properties": { "DisNo.": "2010-0094-KEN", "Historic": "No", "Classification Key": "nat-hyd-flo-riv", "Disaster Group": "Natural", "Disaster Subgroup": "Hydrological", "Disaster Type": "Flood", "Disaster Subtype": "Riverine flood", "External IDs": null, "Event Name": null, "ISO": "KEN", "Country": "Kenya", "Subregion": "Sub-Saharan Africa", "Region": "Africa", "Location": "Mandera district (North Eastern province), Turkana, Marakwet, Samburu, Nandi North, Nandi South, Nakuru, Baringo, Narok districts (Rift Valley province), Isiolo, Makueni, Marsabit, Moyale districts (Eastern province), Malindi, Tana River districts (Coast province), Maragua district (Central province), Nairobi district (Nairobi province)", "Origin": "Heavy rains, Long Rains Season (March-June)", "Associated Types": "Lightening|Slide (land, mud, snow, rock)", "OFDA\/BHA Response": "No", "Appeal": "No", "Declaration": "No", "AID Contribution ('000 US$)": null, "Magnitude": 40320.0, "Magnitude Scale": "Km2", "Latitude": 0.01, "Longitude": 34.5, "River Basin": null, "Start Year": 2010, "Start Month": 3, "Start Day": 1, "End Year": 2010, "End Month": 5, "End Day": 14, "Total Deaths": 94, "No. Injured": null, "No. Affected": 141164, "No. Homeless": null, "Total Affected": 141164, "Reconstruction Costs ('000 US$)": null, "Reconstruction Costs, Adjusted ('000 US$)": null, "Insured Damage ('000 US$)": null, "Insured Damage, Adjusted ('000 US$)": null, "Total Damage ('000 US$)": null, "Total Damage, Adjusted ('000 US$)": null, "CPI": 71.56359558, "Admin Units": [ { "adm2_code": 51335, "adm2_name": "Maragua" }, { "adm2_code": 51343, "adm2_name": "Malindi" }, { "adm2_code": 51346, "adm2_name": "Tana River" }, { "adm2_code": 51348, "adm2_name": "Isiolo" }, { "adm2_code": 51351, "adm2_name": "Makueni" }, { "adm2_code": 51352, "adm2_name": "Marsabit" }, { "adm2_code": 51357, "adm2_name": "Moyale" }, { "adm2_code": 51360, "adm2_name": "Nairobi" }, { "adm2_code": 51363, "adm2_name": "Mandera" }, { "adm2_code": 51377, "adm2_name": "Baringo" }, { "adm2_code": 51385, "adm2_name": "Marakwet" }, { "adm2_code": 51386, "adm2_name": "Nakuru" }, { "adm2_code": 51388, "adm2_name": "Narok" }, { "adm2_code": 51389, "adm2_name": "Samburu" }, { "adm2_code": 51392, "adm2_name": "Turkana" }, { "adm2_code": 68769, "adm2_name": "Nandi North" }, { "adm2_code": 68770, "adm2_name": "Nandi South" } ], "Entry Date": "2011-03-15", "Last Update": "2023-09-25" }, "geometry": { "type": "Point", "coordinates": [ 34.5, 0.01 ] } },
{ "type": "Feature", "properties": { "DisNo.": "2010-0285-KEN", "Historic": "No", "Classification Key": "nat-hyd-flo-riv", "Disaster Group": "Natural", "Disaster Subgroup": "Hydrological", "Disaster Type": "Flood", "Disaster Subtype": "Riverine flood", "External IDs": null, "Event Name": null, "ISO": "KEN", "Country": "Kenya", "Subregion": "Sub-Saharan Africa", "Region": "Africa", "Location": "Salabani village (Marigat area, Baringo district, Rift Valley province), Western province", "Origin": null, "Associated Types": null, "OFDA\/BHA Response": "No", "Appeal": "No", "Declaration": "No", "AID Contribution ('000 US$)": null, "Magnitude": 196100.0, "Magnitude Scale": "Km2", "Latitude": 1.5, "Longitude": 36.0, "River Basin": null, "Start Year": 2010, "Start Month": 5, "Start Day": 8, "End Year": 2010, "End Month": 5, "End Day": 24, "Total Deaths": 100, "No. Injured": null, "No. Affected": 70000, "No. Homeless": null, "Total Affected": 70000, "Reconstruction Costs ('000 US$)": null, "Reconstruction Costs, Adjusted ('000 US$)": null, "Insured Damage ('000 US$)": null, "Insured Damage, Adjusted ('000 US$)": null, "Total Damage ('000 US$)": null, "Total Damage, Adjusted ('000 US$)": null, "CPI": 71.56359558, "Admin Units": [ { "adm1_code": 51332, "adm1_name": "Western" }, { "adm2_code": 51377, "adm2_name": "Baringo" } ], "Entry Date": "2010-07-15", "Last Update": "2023-09-25" }, "geometry": { "type": "Point", "coordinates": [ 36.0, 1.5 ] } },
{ "type": "Feature", "properties": { "DisNo.": "2011-0423-KEN", "Historic": "No", "Classification Key": "nat-hyd-flo-riv", "Disaster Group": "Natural", "Disaster Subgroup": "Hydrological", "Disaster Type": "Flood", "Disaster Subtype": "Riverine flood", "External IDs": null, "Event Name": null, "ISO": "KEN", "Country": "Kenya", "Subregion": "Sub-Saharan Africa", "Region": "Africa", "Location": "Kisumu town (Kisimu district, Nyanza province), Turkana district (Rift Valley province)", "Origin": "Heavy rains", "Associated Types": null, "OFDA\/BHA Response": "No", "Appeal": "No", "Declaration": "No", "AID Contribution ('000 US$)": null, "Magnitude": 20554.0, "Magnitude Scale": "Km2", "Latitude": 0.1257, "Longitude": 35.57, "River Basin": null, "Start Year": 2011, "Start Month": 8, "Start Day": 15, "End Year": 2011, "End Month": 9, "End Day": 8, "Total Deaths": 8, "No. Injured": null, "No. Affected": 4000, "No. Homeless": null, "Total Affected": 4000, "Reconstruction Costs ('000 US$)": null, "Reconstruction Costs, Adjusted ('000 US$)": null, "Insured Damage ('000 US$)": null, "Insured Damage, Adjusted ('000 US$)": null, "Total Damage ('000 US$)": null, "Total Damage, Adjusted ('000 US$)": null, "CPI": 73.82275086, "Admin Units": [ { "adm2_code": 51369, "adm2_name": "Kisumu" }, { "adm2_code": 51392, "adm2_name": "Turkana" } ], "Entry Date": "2011-11-07", "Last Update": "2023-09-25" }, "geometry": { "type": "Point", "coordinates": [ 35.57, 0.1257 ] } },
{ "type": "Feature", "properties": { "DisNo.": "2011-0476-KEN", "Historic": "No", "Classification Key": "nat-hyd-flo-riv", "Disaster Group": "Natural", "Disaster Subgroup": "Hydrological", "Disaster Type": "Flood", "Disaster Subtype": "Riverine flood", "External IDs": null, "Event Name": null, "ISO": "KEN", "Country": "Kenya", "Subregion": "Sub-Saharan Africa", "Region": "Africa", "Location": "Dadaab village (Garissa district, North Eastern province)", "Origin": "Heavy rains", "Associated Types": null, "OFDA\/BHA Response": "No", "Appeal": "No", "Declaration": "No", "AID Contribution ('000 US$)": null, "Magnitude": null, "Magnitude Scale": "Km2", "Latitude": null, "Longitude": null, "River Basin": null, "Start Year": 2011, "Start Month": 11, "Start Day": 4, "End Year": 2011, "End Month": 11, "End Day": 4, "Total Deaths": null, "No. Injured": null, "No. Affected": null, "No. Homeless": 5000, "Total Affected": 5000, "Reconstruction Costs ('000 US$)": null, "Reconstruction Costs, Adjusted ('000 US$)": null, "Insured Damage ('000 US$)": null, "Insured Damage, Adjusted ('000 US$)": null, "Total Damage ('000 US$)": null, "Total Damage, Adjusted ('000 US$)": null, "CPI": 73.82275086, "Admin Units": [ { "adm2_code": 51361, "adm2_name": "Garissa" } ], "Entry Date": "2011-11-22", "Last Update": "2023-09-25" }, "geometry": null },
{ "type": "Feature", "properties": { "DisNo.": "2011-0504-KEN", "Historic": "No", "Classification Key": "nat-hyd-flo-riv", "Disaster Group": "Natural", "Disaster Subgroup": "Hydrological", "Disaster Type": "Flood", "Disaster Subtype": "Riverine flood", "External IDs": "GLIDE:FL-2011-000184", "Event Name": null, "ISO": "KEN", "Country": "Kenya", "Subregion": "Sub-Saharan Africa", "Region": "Africa", "Location": "Busia, Kakamega districts (Western province), Siaya, Kisumu, Rachuonyo, Central Kisii districts (Nyanza province), Tana River district (Coast province), Baringo, Keiyo, West Pokot, Samburu, Marakwet districts (Rift Valley province), Moyale, Marsabit, Isiolo districts (Eastern province), Wajir district (North Eastern province), Muranga district (Central province)", "Origin": "Heavy raisn and storms", "Associated Types": null, "OFDA\/BHA Response": "No", "Appeal": "No", "Declaration": "No", "AID Contribution ('000 US$)": null, "Magnitude": 9789.0, "Magnitude Scale": "Km2", "Latitude": 0.385, "Longitude": 36.12, "River Basin": null, "Start Year": 2011, "Start Month": 11, "Start Day": 29, "End Year": 2011, "End Month": 12, "End Day": 22, "Total Deaths": 25, "No. Injured": null, "No. Affected": 91692, "No. Homeless": null, "Total Affected": 91692, "Reconstruction Costs ('000 US$)": null, "Reconstruction Costs, Adjusted ('000 US$)": null, "Insured Damage ('000 US$)": null, "Insured Damage, Adjusted ('000 US$)": null, "Total Damage ('000 US$)": null, "Total Damage, Adjusted ('000 US$)": null, "CPI": 73.82275086, "Admin Units": [ { "adm2_code": 51336, "adm2_name": "Muranga" }, { "adm2_code": 51346, "adm2_name": "Tana River" }, { "adm2_code": 51348, "adm2_name": "Isiolo" }, { "adm2_code": 51352, "adm2_name": "Marsabit" }, { "adm2_code": 51357, "adm2_name": "Moyale" }, { "adm2_code": 51364, "adm2_name": "Wajir" }, { "adm2_code": 51366, "adm2_name": "Central Kisii" }, { "adm2_code": 51369, "adm2_name": "Kisumu" }, { "adm2_code": 51374, "adm2_name": "Rachuonyo" }, { "adm2_code": 51375, "adm2_name": "Siaya" }, { "adm2_code": 51377, "adm2_name": "Baringo" }, { "adm2_code": 51381, "adm2_name": "Keiyo" }, { "adm2_code": 51385, "adm2_name": "Marakwet" }, { "adm2_code": 51389, "adm2_name": "Samburu" }, { "adm2_code": 51394, "adm2_name": "West Pokot" }, { "adm2_code": 51396, "adm2_name": "Busia" }, { "adm2_code": 51398, "adm2_name": "Kakamega" } ], "Entry Date": "2012-01-05", "Last Update": "2023-09-25" }, "geometry": { "type": "Point", "coordinates": [ 36.12, 0.385 ] } },
{ "type": "Feature", "properties": { "DisNo.": "2012-0166-KEN", "Historic": "No", "Classification Key": "nat-hyd-flo-riv", "Disaster Group": "Natural", "Disaster Subgroup": "Hydrological", "Disaster Type": "Flood", "Disaster Subtype": "Riverine flood", "External IDs": null, "Event Name": null, "ISO": "KEN", "Country": "Kenya", "Subregion": "Sub-Saharan Africa", "Region": "Africa", "Location": "Kitengela, Athi River areas (Machakos district, Eastern province), Ngong town (Kajiado district, Rift Valley province), Bura, Garsen, Bangale areas (Tana River district, Coast province), Homa Bay, Kisumu, Suba, Nyando, Rachuonyo, Migori districts (Nyanza province), Busia district (Western province), Thika district (Central province), Nakuru district (Rift Valley province), Malindi district (Coast province)", "Origin": "Torrential rain", "Associated Types": null, "OFDA\/BHA Response": "No", "Appeal": "No", "Declaration": "No", "AID Contribution ('000 US$)": null, "Magnitude": 12660.17, "Magnitude Scale": "Km2", "Latitude": -0.191962, "Longitude": 35.19, "River Basin": null, "Start Year": 2012, "Start Month": 4, "Start Day": 20, "End Year": 2012, "End Month": 5, "End Day": 16, "Total Deaths": 73, "No. Injured": null, "No. Affected": 280670, "No. Homeless": null, "Total Affected": 280670, "Reconstruction Costs ('000 US$)": null, "Reconstruction Costs, Adjusted ('000 US$)": null, "Insured Damage ('000 US$)": 1000, "Insured Damage, Adjusted ('000 US$)": 1327, "Total Damage ('000 US$)": 100000, "Total Damage, Adjusted ('000 US$)": 132713, "CPI": 75.3503857, "Admin Units": [ { "adm2_code": 51339, "adm2_name": "Thika" }, { "adm2_code": 51343, "adm2_name": "Malindi" }, { "adm2_code": 51346, "adm2_name": "Tana River" }, { "adm2_code": 51350, "adm2_name": "Machakos" }, { "adm2_code": 51368, "adm2_name": "Homa Bay" }, { "adm2_code": 51369, "adm2_name": "Kisumu" }, { "adm2_code": 51371, "adm2_name": "Migori" }, { "adm2_code": 51373, "adm2_name": "Nyando" }, { "adm2_code": 51374, "adm2_name": "Rachuonyo" }, { "adm2_code": 51376, "adm2_name": "Suba" }, { "adm2_code": 51380, "adm2_name": "Kajiado" }, { "adm2_code": 51386, "adm2_name": "Nakuru" }, { "adm2_code": 51396, "adm2_name": "Busia" } ], "Entry Date": "2012-07-05", "Last Update": "2023-09-25" }, "geometry": { "type": "Point", "coordinates": [ 35.19, -0.191962 ] } },
{ "type": "Feature", "properties": { "DisNo.": "2013-0123-KEN", "Historic": "No", "Classification Key": "nat-hyd-flo-riv", "Disaster Group": "Natural", "Disaster Subgroup": "Hydrological", "Disaster Type": "Flood", "Disaster Subtype": "Riverine flood", "External IDs": "GLIDE:FL-2013-000038", "Event Name": null, "ISO": "KEN", "Country": "Kenya", "Subregion": "Sub-Saharan Africa", "Region": "Africa", "Location": "Naivasha town (Nakuru district, Rift Valley province), Turkana, West Pokot, Baringo, Marakwet, Keiyo districts (Rift Valley province), Kisumu district (Nyanza province), Muranga, Nyeri, Kiambu districts (Central province), Coast, Western provinces", "Origin": "Heavy rains", "Associated Types": "Slide (land, mud, snow, rock)", "OFDA\/BHA Response": "No", "Appeal": "No", "Declaration": "No", "AID Contribution ('000 US$)": null, "Magnitude": 73170.41, "Magnitude Scale": "Km2", "Latitude": 2.46174, "Longitude": 36.72, "River Basin": "Nzoia river", "Start Year": 2013, "Start Month": 3, "Start Day": 10, "End Year": 2013, "End Month": 4, "End Day": 30, "Total Deaths": 96, "No. Injured": 20, "No. Affected": 100000, "No. Homeless": null, "Total Affected": 100020, "Reconstruction Costs ('000 US$)": null, "Reconstruction Costs, Adjusted ('000 US$)": null, "Insured Damage ('000 US$)": null, "Insured Damage, Adjusted ('000 US$)": null, "Total Damage ('000 US$)": 36000, "Total Damage, Adjusted ('000 US$)": 47087, "CPI": 76.45414599, "Admin Units": [ { "adm1_code": 51326, "adm1_name": "Coast" }, { "adm1_code": 51332, "adm1_name": "Western" }, { "adm2_code": 51333, "adm2_name": "Kiambu" }, { "adm2_code": 51336, "adm2_name": "Muranga" }, { "adm2_code": 51338, "adm2_name": "Nyeri" }, { "adm2_code": 51369, "adm2_name": "Kisumu" }, { "adm2_code": 51377, "adm2_name": "Baringo" }, { "adm2_code": 51381, "adm2_name": "Keiyo" }, { "adm2_code": 51385, "adm2_name": "Marakwet" }, { "adm2_code": 51386, "adm2_name": "Nakuru" }, { "adm2_code": 51392, "adm2_name": "Turkana" }, { "adm2_code": 51394, "adm2_name": "West Pokot" } ], "Entry Date": "2013-11-19", "Last Update": "2023-09-25" }, "geometry": { "type": "Point", "coordinates": [ 36.72, 2.46174 ] } },
{ "type": "Feature", "properties": { "DisNo.": "2013-0281-KEN", "Historic": "No", "Classification Key": "nat-hyd-flo-riv", "Disaster Group": "Natural", "Disaster Subgroup": "Hydrological", "Disaster Type": "Flood", "Disaster Subtype": "Riverine flood", "External IDs": null, "Event Name": null, "ISO": "KEN", "Country": "Kenya", "Subregion": "Sub-Saharan Africa", "Region": "Africa", "Location": "Marigat, Ngambo, Salabani villages (Baringo district, Rift Valley province)", "Origin": "Heavy rains", "Associated Types": null, "OFDA\/BHA Response": "No", "Appeal": "No", "Declaration": "No", "AID Contribution ('000 US$)": null, "Magnitude": 9047.26, "Magnitude Scale": "Km2", "Latitude": 1.66076, "Longitude": 35.21, "River Basin": "Braingo lake", "Start Year": 2013, "Start Month": 8, "Start Day": 5, "End Year": 2013, "End Month": 8, "End Day": 7, "Total Deaths": null, "No. Injured": null, "No. Affected": 5000, "No. Homeless": null, "Total Affected": 5000, "Reconstruction Costs ('000 US$)": null, "Reconstruction Costs, Adjusted ('000 US$)": null, "Insured Damage ('000 US$)": null, "Insured Damage, Adjusted ('000 US$)": null, "Total Damage ('000 US$)": null, "Total Damage, Adjusted ('000 US$)": null, "CPI": 76.45414599, "Admin Units": [ { "adm2_code": 51377, "adm2_name": "Baringo" } ], "Entry Date": "2013-11-27", "Last Update": "2023-09-25" }, "geometry": { "type": "Point", "coordinates": [ 35.21, 1.66076 ] } },
{ "type": "Feature", "properties": { "DisNo.": "2013-0305-KEN", "Historic": "No", "Classification Key": "nat-hyd-flo-riv", "Disaster Group": "Natural", "Disaster Subgroup": "Hydrological", "Disaster Type": "Flood", "Disaster Subtype": "Riverine flood", "External IDs": "GLIDE:FL-2013-000004", "Event Name": null, "ISO": "KEN", "Country": "Kenya", "Subregion": "Sub-Saharan Africa", "Region": "Africa", "Location": "Nairobi district (Nairobi province), Baringo, Keiyo, Marakwet, Nandi North, Nandi South, Trans Nzoia, Turkana, Uasin Gishu, West Pokot districts (Rift Valley province), Nyando, Kisumu districts (Nyanza province)", "Origin": "Heavy rains", "Associated Types": null, "OFDA\/BHA Response": "No", "Appeal": "No", "Declaration": "No", "AID Contribution ('000 US$)": null, "Magnitude": 71113.05, "Magnitude Scale": "Km2", "Latitude": 0.058024, "Longitude": 36.52, "River Basin": null, "Start Year": 2013, "Start Month": 1, "Start Day": 13, "End Year": 2013, "End Month": 1, "End Day": 17, "Total Deaths": 18, "No. Injured": null, "No. Affected": 10780, "No. Homeless": null, "Total Affected": 10780, "Reconstruction Costs ('000 US$)": null, "Reconstruction Costs, Adjusted ('000 US$)": null, "Insured Damage ('000 US$)": null, "Insured Damage, Adjusted ('000 US$)": null, "Total Damage ('000 US$)": null, "Total Damage, Adjusted ('000 US$)": null, "CPI": 76.45414599, "Admin Units": [ { "adm2_code": 51360, "adm2_name": "Nairobi" }, { "adm2_code": 51369, "adm2_name": "Kisumu" }, { "adm2_code": 51373, "adm2_name": "Nyando" }, { "adm2_code": 51377, "adm2_name": "Baringo" }, { "adm2_code": 51381, "adm2_name": "Keiyo" }, { "adm2_code": 51385, "adm2_name": "Marakwet" }, { "adm2_code": 51391, "adm2_name": "Trans Nzoia" }, { "adm2_code": 51392, "adm2_name": "Turkana" }, { "adm2_code": 51393, "adm2_name": "Uasin Gishu" }, { "adm2_code": 51394, "adm2_name": "West Pokot" }, { "adm2_code": 68769, "adm2_name": "Nandi North" }, { "adm2_code": 68770, "adm2_name": "Nandi South" } ], "Entry Date": "2014-03-19", "Last Update": "2023-09-25" }, "geometry": { "type": "Point", "coordinates": [ 36.52, 0.058024 ] } },
{ "type": "Feature", "properties": { "DisNo.": "2013-0545-KEN", "Historic": "No", "Classification Key": "nat-hyd-flo-riv", "Disaster Group": "Natural", "Disaster Subgroup": "Hydrological", "Disaster Type": "Flood", "Disaster Subtype": "Riverine flood", "External IDs": null, "Event Name": null, "ISO": "KEN", "Country": "Kenya", "Subregion": "Sub-Saharan Africa", "Region": "Africa", "Location": "Taita Taveta district (Coast province), Makueni district (Eastern province), Kajiado, Laikipia, Narok districts (Rift Valley province)", "Origin": null, "Associated Types": null, "OFDA\/BHA Response": "No", "Appeal": "No", "Declaration": "No", "AID Contribution ('000 US$)": null, "Magnitude": null, "Magnitude Scale": "Km2", "Latitude": null, "Longitude": null, "River Basin": null, "Start Year": 2013, "Start Month": 12, "Start Day": null, "End Year": 2013, "End Month": 12, "End Day": null, "Total Deaths": 14, "No. Injured": null, "No. Affected": null, "No. Homeless": null, "Total Affected": null, "Reconstruction Costs ('000 US$)": null, "Reconstruction Costs, Adjusted ('000 US$)": null, "Insured Damage ('000 US$)": null, "Insured Damage, Adjusted ('000 US$)": null, "Total Damage ('000 US$)": null, "Total Damage, Adjusted ('000 US$)": null, "CPI": 76.45414599, "Admin Units": [ { "adm2_code": 51345, "adm2_name": "Taita Taveta" }, { "adm2_code": 51351, "adm2_name": "Makueni" }, { "adm2_code": 51380, "adm2_name": "Kajiado" }, { "adm2_code": 51384, "adm2_name": "Laikipia" }, { "adm2_code": 51388, "adm2_name": "Narok" } ], "Entry Date": "2014-01-03", "Last Update": "2023-09-25" }, "geometry": null },
{ "type": "Feature", "properties": { "DisNo.": "2015-0158-KEN", "Historic": "No", "Classification Key": "nat-hyd-flo-fla", "Disaster Group": "Natural", "Disaster Subgroup": "Hydrological", "Disaster Type": "Flood", "Disaster Subtype": "Flash flood", "External IDs": null, "Event Name": null, "ISO": "KEN", "Country": "Kenya", "Subregion": "Sub-Saharan Africa", "Region": "Africa", "Location": "Homa Bay district (Nyanza province)", "Origin": "Torrential rain", "Associated Types": null, "OFDA\/BHA Response": "No", "Appeal": "No", "Declaration": "No", "AID Contribution ('000 US$)": null, "Magnitude": null, "Magnitude Scale": "Km2", "Latitude": null, "Longitude": null, "River Basin": null, "Start Year": 2015, "Start Month": 4, "Start Day": 4, "End Year": 2015, "End Month": 4, "End Day": 10, "Total Deaths": 13, "No. Injured": null, "No. Affected": 1500, "No. Homeless": null, "Total Affected": 1500, "Reconstruction Costs ('000 US$)": null, "Reconstruction Costs, Adjusted ('000 US$)": null, "Insured Damage ('000 US$)": null, "Insured Damage, Adjusted ('000 US$)": null, "Total Damage ('000 US$)": null, "Total Damage, Adjusted ('000 US$)": null, "CPI": 77.78656766, "Admin Units": [ { "adm2_code": 51368, "adm2_name": "Homa Bay" } ], "Entry Date": "2015-05-19", "Last Update": "2023-09-25" }, "geometry": null },
{ "type": "Feature", "properties": { "DisNo.": "2015-0159-KEN", "Historic": "No", "Classification Key": "nat-hyd-flo-riv", "Disaster Group": "Natural", "Disaster Subgroup": "Hydrological", "Disaster Type": "Flood", "Disaster Subtype": "Riverine flood", "External IDs": "DFO:4248|GLIDE:FL-2015-000049", "Event Name": null, "ISO": "KEN", "Country": "Kenya", "Subregion": "Sub-Saharan Africa", "Region": "Africa", "Location": "Narok district (Rift Valley province), Kisumu, Central Kisii, Homa Bay districts (Nyanza province), Nairobi district (Nairobi province)", "Origin": "Heavy rains", "Associated Types": null, "OFDA\/BHA Response": "No", "Appeal": "No", "Declaration": "No", "AID Contribution ('000 US$)": null, "Magnitude": 20432.0, "Magnitude Scale": "Km2", "Latitude": -0.795, "Longitude": 36.25, "River Basin": null, "Start Year": 2015, "Start Month": 4, "Start Day": 27, "End Year": 2015, "End Month": 5, "End Day": 2, "Total Deaths": 13, "No. Injured": null, "No. Affected": 3000, "No. Homeless": null, "Total Affected": 3000, "Reconstruction Costs ('000 US$)": null, "Reconstruction Costs, Adjusted ('000 US$)": null, "Insured Damage ('000 US$)": null, "Insured Damage, Adjusted ('000 US$)": null, "Total Damage ('000 US$)": null, "Total Damage, Adjusted ('000 US$)": null, "CPI": 77.78656766, "Admin Units": [ { "adm2_code": 51360, "adm2_name": "Nairobi" }, { "adm2_code": 51366, "adm2_name": "Central Kisii" }, { "adm2_code": 51368, "adm2_name": "Homa Bay" }, { "adm2_code": 51369, "adm2_name": "Kisumu" }, { "adm2_code": 51388, "adm2_name": "Narok" } ], "Entry Date": "2015-05-19", "Last Update": "2023-09-25" }, "geometry": { "type": "Point", "coordinates": [ 36.25, -0.795 ] } },
{ "type": "Feature", "properties": { "DisNo.": "2015-0564-KEN", "Historic": "No", "Classification Key": "nat-hyd-flo-riv", "Disaster Group": "Natural", "Disaster Subgroup": "Hydrological", "Disaster Type": "Flood", "Disaster Subtype": "Riverine flood", "External IDs": "DFO:4317|GLIDE:FL-2015-000169", "Event Name": null, "ISO": "KEN", "Country": "Kenya", "Subregion": "Sub-Saharan Africa", "Region": "Africa", "Location": "Mt Elgon, Busia, Bungoma districts (Western province), Kirinyaga district (Central province), Kisumu district (Nyanza province), Tana River district (Coast province), Marsabit, Isiolo, Machakos districts (Eastern province), Mandera, Wajir districts (North Eastern province), Narok, Nandi North, Nandi South, Trans Nzoia districts (Rift Valley province)", "Origin": "Heavy rains", "Associated Types": null, "OFDA\/BHA Response": "No", "Appeal": "No", "Declaration": "No", "AID Contribution ('000 US$)": null, "Magnitude": 103769.52, "Magnitude Scale": "Km2", "Latitude": -2.036, "Longitude": 39.513, "River Basin": "Garissa, Tana, Nyando, Kilifi, Nzoia rivers", "Start Year": 2015, "Start Month": 12, "Start Day": 1, "End Year": 2016, "End Month": 1, "End Day": 6, "Total Deaths": 112, "No. Injured": 73, "No. Affected": 240726, "No. Homeless": null, "Total Affected": 240799, "Reconstruction Costs ('000 US$)": null, "Reconstruction Costs, Adjusted ('000 US$)": null, "Insured Damage ('000 US$)": null, "Insured Damage, Adjusted ('000 US$)": null, "Total Damage ('000 US$)": null, "Total Damage, Adjusted ('000 US$)": null, "CPI": 77.78656766, "Admin Units": [ { "adm2_code": 51334, "adm2_name": "Kirinyaga" }, { "adm2_code": 51346, "adm2_name": "Tana River" }, { "adm2_code": 51348, "adm2_name": "Isiolo" }, { "adm2_code": 51350, "adm2_name": "Machakos" }, { "adm2_code": 51352, "adm2_name": "Marsabit" }, { "adm2_code": 51363, "adm2_name": "Mandera" }, { "adm2_code": 51364, "adm2_name": "Wajir" }, { "adm2_code": 51369, "adm2_name": "Kisumu" }, { "adm2_code": 51388, "adm2_name": "Narok" }, { "adm2_code": 51391, "adm2_name": "Trans Nzoia" }, { "adm2_code": 68769, "adm2_name": "Nandi North" }, { "adm2_code": 68770, "adm2_name": "Nandi South" }, { "adm2_code": 51395, "adm2_name": "Bungoma" }, { "adm2_code": 51396, "adm2_name": "Busia" }, { "adm2_code": 51400, "adm2_name": "Mt Elgon" } ], "Entry Date": "2016-01-12", "Last Update": "2023-09-25" }, "geometry": { "type": "Point", "coordinates": [ 39.513, -2.036 ] } },
{ "type": "Feature", "properties": { "DisNo.": "2016-0089-KEN", "Historic": "No", "Classification Key": "nat-hyd-flo-riv", "Disaster Group": "Natural", "Disaster Subgroup": "Hydrological", "Disaster Type": "Flood", "Disaster Subtype": "Riverine flood", "External IDs": null, "Event Name": null, "ISO": "KEN", "Country": "Kenya", "Subregion": "Sub-Saharan Africa", "Region": "Africa", "Location": "Lodwar city, Napetet, Soweto, Kalifonia, Nakerekei villages (Turkana district, Rift Valley province)", "Origin": "Heavy rains", "Associated Types": null, "OFDA\/BHA Response": "No", "Appeal": "No", "Declaration": "No", "AID Contribution ('000 US$)": null, "Magnitude": null, "Magnitude Scale": "Km2", "Latitude": null, "Longitude": null, "River Basin": "Turkwel, Kawalase rivers", "Start Year": 2016, "Start Month": 3, "Start Day": 10, "End Year": 2016, "End Month": 3, "End Day": 10, "Total Deaths": 3, "No. Injured": null, "No. Affected": null, "No. Homeless": 1000, "Total Affected": 1000, "Reconstruction Costs ('000 US$)": null, "Reconstruction Costs, Adjusted ('000 US$)": null, "Insured Damage ('000 US$)": null, "Insured Damage, Adjusted ('000 US$)": null, "Total Damage ('000 US$)": null, "Total Damage, Adjusted ('000 US$)": null, "CPI": 78.767923, "Admin Units": [ { "adm2_code": 51392, "adm2_name": "Turkana" } ], "Entry Date": "2016-04-11", "Last Update": "2023-09-25" }, "geometry": null },
{ "type": "Feature", "properties": { "DisNo.": "2016-0161-KEN", "Historic": "No", "Classification Key": "nat-hyd-flo-flo", "Disaster Group": "Natural", "Disaster Subgroup": "Hydrological", "Disaster Type": "Flood", "Disaster Subtype": "Flood (General)", "External IDs": null, "Event Name": null, "ISO": "KEN", "Country": "Kenya", "Subregion": "Sub-Saharan Africa", "Region": "Africa", "Location": "Nairobi district (Nairobi province); Turkana, Wajir, Marsabit", "Origin": null, "Associated Types": "Collapse", "OFDA\/BHA Response": "No", "Appeal": "No", "Declaration": "No", "AID Contribution ('000 US$)": null, "Magnitude": null, "Magnitude Scale": "Km2", "Latitude": null, "Longitude": null, "River Basin": "Kolotum, Mutoine, Garissa, Tana rivers", "Start Year": 2016, "Start Month": 4, "Start Day": 29, "End Year": 2016, "End Month": 5, "End Day": 2, "Total Deaths": 39, "No. Injured": null, "No. Affected": 10000, "No. Homeless": null, "Total Affected": 10000, "Reconstruction Costs ('000 US$)": null, "Reconstruction Costs, Adjusted ('000 US$)": null, "Insured Damage ('000 US$)": null, "Insured Damage, Adjusted ('000 US$)": null, "Total Damage ('000 US$)": null, "Total Damage, Adjusted ('000 US$)": null, "CPI": 78.767923, "Admin Units": [ { "adm2_code": 51352, "adm2_name": "Marsabit" }, { "adm2_code": 51360, "adm2_name": "Nairobi" }, { "adm2_code": 51364, "adm2_name": "Wajir" }, { "adm2_code": 51392, "adm2_name": "Turkana" } ], "Entry Date": "2016-05-20", "Last Update": "2023-09-25" }, "geometry": null },
{ "type": "Feature", "properties": { "DisNo.": "2017-0205-KEN", "Historic": "No", "Classification Key": "nat-hyd-flo-riv", "Disaster Group": "Natural", "Disaster Subgroup": "Hydrological", "Disaster Type": "Flood", "Disaster Subtype": "Riverine flood", "External IDs": null, "Event Name": null, "ISO": "KEN", "Country": "Kenya", "Subregion": "Sub-Saharan Africa", "Region": "Africa", "Location": "Coastal, Central, Northeastern, Western regions; Mombasa, Kwale, Taveta, Dadaab camp", "Origin": "Heavy rainfall", "Associated Types": null, "OFDA\/BHA Response": "No", "Appeal": "No", "Declaration": "No", "AID Contribution ('000 US$)": null, "Magnitude": 55027.86, "Magnitude Scale": "Km2", "Latitude": -2.879, "Longitude": 37.88, "River Basin": null, "Start Year": 2017, "Start Month": 5, "Start Day": 8, "End Year": 2017, "End Month": 5, "End Day": 16, "Total Deaths": 26, "No. Injured": null, "No. Affected": 25000, "No. Homeless": null, "Total Affected": 25000, "Reconstruction Costs ('000 US$)": 194000, "Reconstruction Costs, Adjusted ('000 US$)": 241156, "Insured Damage ('000 US$)": null, "Insured Damage, Adjusted ('000 US$)": null, "Total Damage ('000 US$)": null, "Total Damage, Adjusted ('000 US$)": null, "CPI": 80.44577926, "Admin Units": [ { "adm1_code": 51325, "adm1_name": "Central" }, { "adm1_code": 51326, "adm1_name": "Coast" }, { "adm1_code": 51329, "adm1_name": "North Eastern" }, { "adm1_code": 51332, "adm1_name": "Western" } ], "Entry Date": "2017-06-26", "Last Update": "2023-09-25" }, "geometry": { "type": "Point", "coordinates": [ 37.88, -2.879 ] } },
{ "type": "Feature", "properties": { "DisNo.": "2018-0116-KEN", "Historic": "No", "Classification Key": "nat-hyd-flo-flo", "Disaster Group": "Natural", "Disaster Subgroup": "Hydrological", "Disaster Type": "Flood", "Disaster Subtype": "Flood (General)", "External IDs": null, "Event Name": null, "ISO": "KEN", "Country": "Kenya", "Subregion": "Sub-Saharan Africa", "Region": "Africa", "Location": "Nairobi", "Origin": "Heavy rains", "Associated Types": null, "OFDA\/BHA Response": "No", "Appeal": "No", "Declaration": "No", "AID Contribution ('000 US$)": null, "Magnitude": null, "Magnitude Scale": "Km2", "Latitude": null, "Longitude": null, "River Basin": "Ngong, Athi rivers", "Start Year": 2018, "Start Month": 3, "Start Day": 14, "End Year": 2018, "End Month": 3, "End Day": 20, "Total Deaths": 15, "No. Injured": null, "No. Affected": null, "No. Homeless": null, "Total Affected": null, "Reconstruction Costs ('000 US$)": null, "Reconstruction Costs, Adjusted ('000 US$)": null, "Insured Damage ('000 US$)": null, "Insured Damage, Adjusted ('000 US$)": null, "Total Damage ('000 US$)": null, "Total Damage, Adjusted ('000 US$)": null, "CPI": 82.41066796, "Admin Units": [ { "adm1_code": 51328, "adm1_name": "Nairobi" } ], "Entry Date": "2018-04-16", "Last Update": "2023-09-25" }, "geometry": null },
{ "type": "Feature", "properties": { "DisNo.": "2018-0132-KEN", "Historic": "No", "Classification Key": "nat-hyd-flo-flo", "Disaster Group": "Natural", "Disaster Subgroup": "Hydrological", "Disaster Type": "Flood", "Disaster Subtype": "Flood (General)", "External IDs": null, "Event Name": null, "ISO": "KEN", "Country": "Kenya", "Subregion": "Sub-Saharan Africa", "Region": "Africa", "Location": "Tana river, Garissa, Kisumu, Mandera, Samburu, Tarkana, Isiolo, WAjir", "Origin": "Heavy rains", "Associated Types": null, "OFDA\/BHA Response": "No", "Appeal": "No", "Declaration": "No", "AID Contribution ('000 US$)": null, "Magnitude": null, "Magnitude Scale": "Km2", "Latitude": null, "Longitude": null, "River Basin": null, "Start Year": 2018, "Start Month": 3, "Start Day": 14, "End Year": 2018, "End Month": 5, "End Day": 31, "Total Deaths": 72, "No. Injured": 33, "No. Affected": 211155, "No. Homeless": null, "Total Affected": 211188, "Reconstruction Costs ('000 US$)": null, "Reconstruction Costs, Adjusted ('000 US$)": null, "Insured Damage ('000 US$)": null, "Insured Damage, Adjusted ('000 US$)": null, "Total Damage ('000 US$)": 350000, "Total Damage, Adjusted ('000 US$)": 424702, "CPI": 82.41066796, "Admin Units": [ { "adm2_code": 51346, "adm2_name": "Tana River" }, { "adm2_code": 51348, "adm2_name": "Isiolo" }, { "adm2_code": 51361, "adm2_name": "Garissa" }, { "adm2_code": 51363, "adm2_name": "Mandera" }, { "adm2_code": 51364, "adm2_name": "Wajir" }, { "adm2_code": 51369, "adm2_name": "Kisumu" }, { "adm2_code": 51389, "adm2_name": "Samburu" }, { "adm2_code": 51392, "adm2_name": "Turkana" } ], "Entry Date": "2018-05-11", "Last Update": "2023-09-25" }, "geometry": null },
{ "type": "Feature", "properties": { "DisNo.": "2018-0148-KEN", "Historic": "No", "Classification Key": "nat-hyd-flo-flo", "Disaster Group": "Natural", "Disaster Subgroup": "Hydrological", "Disaster Type": "Flood", "Disaster Subtype": "Flood (General)", "External IDs": null, "Event Name": null, "ISO": "KEN", "Country": "Kenya", "Subregion": "Sub-Saharan Africa", "Region": "Africa", "Location": "Near Nakuru, Rongai region", "Origin": null, "Associated Types": "Broken Dam\/Burst bank", "OFDA\/BHA Response": "No", "Appeal": "No", "Declaration": "No", "AID Contribution ('000 US$)": null, "Magnitude": null, "Magnitude Scale": "Km2", "Latitude": null, "Longitude": null, "River Basin": null, "Start Year": 2018, "Start Month": 5, "Start Day": 9, "End Year": 2018, "End Month": 5, "End Day": 10, "Total Deaths": 47, "No. Injured": null, "No. Affected": null, "No. Homeless": null, "Total Affected": null, "Reconstruction Costs ('000 US$)": null, "Reconstruction Costs, Adjusted ('000 US$)": null, "Insured Damage ('000 US$)": null, "Insured Damage, Adjusted ('000 US$)": null, "Total Damage ('000 US$)": null, "Total Damage, Adjusted ('000 US$)": null, "CPI": 82.41066796, "Admin Units": [ { "adm2_code": 51386, "adm2_name": "Nakuru" } ], "Entry Date": "2018-05-22", "Last Update": "2023-09-25" }, "geometry": null },
{ "type": "Feature", "properties": { "DisNo.": "2019-0500-KEN", "Historic": "No", "Classification Key": "nat-hyd-flo-fla", "Disaster Group": "Natural", "Disaster Subgroup": "Hydrological", "Disaster Type": "Flood", "Disaster Subtype": "Flash flood", "External IDs": "GLIDE:FL-2019-000138", "Event Name": null, "ISO": "KEN", "Country": "Kenya", "Subregion": "Sub-Saharan Africa", "Region": "Africa", "Location": "Mombasa, Kwale, Kilifi, Tana River, Taita–Taveta, Garissa, Wajir, Mandera, Marsabit, Isiolo, Meru, Kitui, Machakos, Makueni, Kirinyaga, Murang'a, Turkana, West Pokot, Samburu, Trans-Nzoia, Elgeyo-Marakwet, Nandi, Narok, Kajiado, Kakamega, Bungoma, Siaya, Kisumu, Homa Bay counties", "Origin": null, "Associated Types": "Slide (land, mud, snow, rock)", "OFDA\/BHA Response": "No", "Appeal": "No", "Declaration": "No", "AID Contribution ('000 US$)": null, "Magnitude": 232028.01, "Magnitude Scale": "Km2", "Latitude": 0.728, "Longitude": 39.414, "River Basin": null, "Start Year": 2019, "Start Month": 10, "Start Day": 10, "End Year": 2019, "End Month": 12, "End Day": 13, "Total Deaths": 90, "No. Injured": null, "No. Affected": 233339, "No. Homeless": null, "Total Affected": 233339, "Reconstruction Costs ('000 US$)": null, "Reconstruction Costs, Adjusted ('000 US$)": null, "Insured Damage ('000 US$)": null, "Insured Damage, Adjusted ('000 US$)": null, "Total Damage ('000 US$)": null, "Total Damage, Adjusted ('000 US$)": null, "CPI": 83.90417006, "Admin Units": [ { "adm2_code": 51364, "adm2_name": "Wajir" }, { "adm2_code": 51385, "adm2_name": "Marakwet" }, { "adm2_code": 51392, "adm2_name": "Turkana" } ], "Entry Date": "2019-10-24", "Last Update": "2023-09-25" }, "geometry": { "type": "Point", "coordinates": [ 39.414, 0.728 ] } },
{ "type": "Feature", "properties": { "DisNo.": "2020-0164-KEN", "Historic": "No", "Classification Key": "nat-hyd-flo-flo", "Disaster Group": "Natural", "Disaster Subgroup": "Hydrological", "Disaster Type": "Flood", "Disaster Subtype": "Flood (General)", "External IDs": "DFO:4897", "Event Name": null, "ISO": "KEN", "Country": "Kenya", "Subregion": "Sub-Saharan Africa", "Region": "Africa", "Location": "West Pokot, Elgeyo Marakwet, Kisumu, Homabay, Tana River, Garissa, Kilifi, Kirinyaga, Siaya, Kakamega, Bomet, Nairobi counties", "Origin": "Heavy rains", "Associated Types": "Slide (land, mud, snow, rock)", "OFDA\/BHA Response": "No", "Appeal": "No", "Declaration": "No", "AID Contribution ('000 US$)": null, "Magnitude": 154389.9, "Magnitude Scale": "Km2", "Latitude": 1.163, "Longitude": 36.593, "River Basin": null, "Start Year": 2020, "Start Month": 4, "Start Day": 18, "End Year": 2020, "End Month": 6, "End Day": 1, "Total Deaths": 285, "No. Injured": null, "No. Affected": 810655, "No. Homeless": null, "Total Affected": 810655, "Reconstruction Costs ('000 US$)": null, "Reconstruction Costs, Adjusted ('000 US$)": null, "Insured Damage ('000 US$)": null, "Insured Damage, Adjusted ('000 US$)": null, "Total Damage ('000 US$)": 10000, "Total Damage, Adjusted ('000 US$)": 11773, "CPI": 84.93919813, "Admin Units": [ { "adm2_code": 51334, "adm2_name": "Kirinyaga" }, { "adm2_code": 51340, "adm2_name": "Kilifi" }, { "adm2_code": 51346, "adm2_name": "Tana River" }, { "adm2_code": 51360, "adm2_name": "Nairobi" }, { "adm2_code": 51361, "adm2_name": "Garissa" }, { "adm2_code": 51368, "adm2_name": "Homa Bay" }, { "adm2_code": 51369, "adm2_name": "Kisumu" }, { "adm2_code": 51375, "adm2_name": "Siaya" }, { "adm2_code": 51378, "adm2_name": "Bomet" }, { "adm2_code": 51385, "adm2_name": "Marakwet" }, { "adm2_code": 51394, "adm2_name": "West Pokot" }, { "adm2_code": 51398, "adm2_name": "Kakamega" } ], "Entry Date": "2020-05-06", "Last Update": "2023-09-25" }, "geometry": { "type": "Point", "coordinates": [ 36.593, 1.163 ] } },
{ "type": "Feature", "properties": { "DisNo.": "2021-0227-KEN", "Historic": "No", "Classification Key": "nat-hyd-flo-flo", "Disaster Group": "Natural", "Disaster Subgroup": "Hydrological", "Disaster Type": "Flood", "Disaster Subtype": "Flood (General)", "External IDs": "GLIDE:FL-2021-000038", "Event Name": null, "ISO": "KEN", "Country": "Kenya", "Subregion": "Sub-Saharan Africa", "Region": "Africa", "Location": "Tana River, Busia, Kisumu, Garissa, Marsabit, Homa Bay, Migori, Narok, Siaya, Nairobi, Elgeyo-Marakwet, Siaya, Baringo, Taita Taveta, Nakuru Counties", "Origin": "\"Long Rains\" season", "Associated Types": null, "OFDA\/BHA Response": "No", "Appeal": "No", "Declaration": "No", "AID Contribution ('000 US$)": null, "Magnitude": null, "Magnitude Scale": "Km2", "Latitude": null, "Longitude": null, "River Basin": "Endau, River Kipsangui, Tana rivers", "Start Year": 2021, "Start Month": 4, "Start Day": 7, "End Year": 2021, "End Month": 5, "End Day": 30, "Total Deaths": 9, "No. Injured": null, "No. Affected": 300000, "No. Homeless": null, "Total Affected": 300000, "Reconstruction Costs ('000 US$)": null, "Reconstruction Costs, Adjusted ('000 US$)": null, "Insured Damage ('000 US$)": null, "Insured Damage, Adjusted ('000 US$)": null, "Total Damage ('000 US$)": null, "Total Damage, Adjusted ('000 US$)": null, "CPI": 88.92949348, "Admin Units": [ { "adm1_code": 51328, "adm1_name": "Nairobi" }, { "adm2_code": 51345, "adm2_name": "Taita Taveta" }, { "adm2_code": 51346, "adm2_name": "Tana River" }, { "adm2_code": 51352, "adm2_name": "Marsabit" }, { "adm2_code": 51361, "adm2_name": "Garissa" }, { "adm2_code": 51368, "adm2_name": "Homa Bay" }, { "adm2_code": 51369, "adm2_name": "Kisumu" }, { "adm2_code": 51371, "adm2_name": "Migori" }, { "adm2_code": 51375, "adm2_name": "Siaya" }, { "adm2_code": 51377, "adm2_name": "Baringo" }, { "adm2_code": 51381, "adm2_name": "Keiyo" }, { "adm2_code": 51385, "adm2_name": "Marakwet" }, { "adm2_code": 51386, "adm2_name": "Nakuru" }, { "adm2_code": 51388, "adm2_name": "Narok" }, { "adm2_code": 51396, "adm2_name": "Busia" } ], "Entry Date": "2021-04-29", "Last Update": "2023-09-25" }, "geometry": null },
{ "type": "Feature", "properties": { "DisNo.": "2023-0187-KEN", "Historic": "No", "Classification Key": "nat-hyd-flo-flo", "Disaster Group": "Natural", "Disaster Subgroup": "Hydrological", "Disaster Type": "Flood", "Disaster Subtype": "Flood (General)", "External IDs": "GLIDE:FF-2023-000051", "Event Name": null, "ISO": "KEN", "Country": "Kenya", "Subregion": "Sub-Saharan Africa", "Region": "Africa", "Location": "Mombasa, Kwale, Tana River, Taita-Taveta, Garissa, Wajir, Mandera, Marsabit, Isiolo, Turkana, West Pokot, Narok, Kajiado, Busia, Siaya, Kisumu, Homa Bay, Migori", "Origin": "Heavy rains", "Associated Types": null, "OFDA\/BHA Response": "No", "Appeal": "No", "Declaration": "No", "AID Contribution ('000 US$)": null, "Magnitude": null, "Magnitude Scale": "Km2", "Latitude": null, "Longitude": null, "River Basin": null, "Start Year": 2023, "Start Month": 3, "Start Day": 25, "End Year": 2023, "End Month": 3, "End Day": 30, "Total Deaths": 36, "No. Injured": 29, "No. Affected": 139135, "No. Homeless": null, "Total Affected": 139164, "Reconstruction Costs ('000 US$)": null, "Reconstruction Costs, Adjusted ('000 US$)": null, "Insured Damage ('000 US$)": null, "Insured Damage, Adjusted ('000 US$)": null, "Total Damage ('000 US$)": null, "Total Damage, Adjusted ('000 US$)": null, "CPI": 100.0, "Admin Units": null, "Entry Date": "2023-03-30", "Last Update": "2024-02-13" }, "geometry": null },
{ "type": "Feature", "properties": { "DisNo.": "2023-0259-KEN", "Historic": "No", "Classification Key": "nat-hyd-flo-fla", "Disaster Group": "Natural", "Disaster Subgroup": "Hydrological", "Disaster Type": "Flood", "Disaster Subtype": "Flash flood", "External IDs": null, "Event Name": null, "ISO": "KEN", "Country": "Kenya", "Subregion": "Sub-Saharan Africa", "Region": "Africa", "Location": "Kisumu, Mandera County", "Origin": "Heavy rains", "Associated Types": null, "OFDA\/BHA Response": "No", "Appeal": "No", "Declaration": "No", "AID Contribution ('000 US$)": null, "Magnitude": null, "Magnitude Scale": "Km2", "Latitude": null, "Longitude": null, "River Basin": "Nyando River", "Start Year": 2023, "Start Month": 4, "Start Day": 25, "End Year": 2023, "End Month": 4, "End Day": 27, "Total Deaths": null, "No. Injured": null, "No. Affected": 22500, "No. Homeless": null, "Total Affected": 22500, "Reconstruction Costs ('000 US$)": null, "Reconstruction Costs, Adjusted ('000 US$)": null, "Insured Damage ('000 US$)": null, "Insured Damage, Adjusted ('000 US$)": null, "Total Damage ('000 US$)": null, "Total Damage, Adjusted ('000 US$)": null, "CPI": 100.0, "Admin Units": [ { "adm2_code": 51363, "adm2_name": "Mandera" }, { "adm2_code": 51369, "adm2_name": "Kisumu" } ], "Entry Date": "2023-04-28", "Last Update": "2023-09-26" }, "geometry": null },
{ "type": "Feature", "properties": { "DisNo.": "2023-0721-KEN", "Historic": "No", "Classification Key": "nat-hyd-flo-flo", "Disaster Group": "Natural", "Disaster Subgroup": "Hydrological", "Disaster Type": "Flood", "Disaster Subtype": "Flood (General)", "External IDs": "GLIDE:FL-2023-000216", "Event Name": null, "ISO": "KEN", "Country": "Kenya", "Subregion": "Sub-Saharan Africa", "Region": "Africa", "Location": "Tana River, Garissa, Wajir, Mandera, Marsabit, Isiolo, Meru, Samburu", "Origin": "Heavy rains, El Nino", "Associated Types": null, "OFDA\/BHA Response": "No", "Appeal": "No", "Declaration": "No", "AID Contribution ('000 US$)": null, "Magnitude": null, "Magnitude Scale": "Km2", "Latitude": null, "Longitude": null, "River Basin": "Dawa, Tana Rivers", "Start Year": 2023, "Start Month": 10, "Start Day": 15, "End Year": 2024, "End Month": null, "End Day": null, "Total Deaths": 178, "No. Injured": 242, "No. Affected": 695255, "No. Homeless": null, "Total Affected": 695497, "Reconstruction Costs ('000 US$)": null, "Reconstruction Costs, Adjusted ('000 US$)": null, "Insured Damage ('000 US$)": null, "Insured Damage, Adjusted ('000 US$)": null, "Total Damage ('000 US$)": null, "Total Damage, Adjusted ('000 US$)": null, "CPI": 100.0, "Admin Units": null, "Entry Date": "2023-11-06", "Last Update": "2024-11-04" }, "geometry": null },
{ "type": "Feature", "properties": { "DisNo.": "2024-0150-KEN", "Historic": "No", "Classification Key": "nat-hyd-flo-fla", "Disaster Group": "Natural", "Disaster Subgroup": "Hydrological", "Disaster Type": "Flood", "Disaster Subtype": "Flash flood", "External IDs": "GLIDE:FL-2024-000045", "Event Name": null, "ISO": "KEN", "Country": "Kenya", "Subregion": "Sub-Saharan Africa", "Region": "Africa", "Location": "Marsabit, Turkana, Tana River, Garissa, Kirinyaga, Muranga, Kiambu, Meru, Kisumu, Nairobi, Kitui, Kajiado, West Pokot", "Origin": "Heavy rains", "Associated Types": "Broken Dam\/Burst bank|Slide (land, mud, snow, rock)", "OFDA\/BHA Response": "No", "Appeal": "No", "Declaration": "No", "AID Contribution ('000 US$)": null, "Magnitude": null, "Magnitude Scale": "Km2", "Latitude": null, "Longitude": null, "River Basin": "Tana and the Mara rivers", "Start Year": 2024, "Start Month": 3, "Start Day": 24, "End Year": 2024, "End Month": 5, "End Day": 3, "Total Deaths": 353, "No. Injured": 188, "No. Affected": 306520, "No. Homeless": null, "Total Affected": 306708, "Reconstruction Costs ('000 US$)": null, "Reconstruction Costs, Adjusted ('000 US$)": null, "Insured Damage ('000 US$)": null, "Insured Damage, Adjusted ('000 US$)": null, "Total Damage ('000 US$)": null, "Total Damage, Adjusted ('000 US$)": null, "CPI": null, "Admin Units": null, "Entry Date": "2024-03-27", "Last Update": "2025-01-13" }, "geometry": null },
{ "type": "Feature", "properties": { "DisNo.": "2024-0210-KEN", "Historic": "No", "Classification Key": "nat-hyd-flo-flo", "Disaster Group": "Natural", "Disaster Subgroup": "Hydrological", "Disaster Type": "Flood", "Disaster Subtype": "Flood (General)", "External IDs": null, "Event Name": null, "ISO": "KEN", "Country": "Kenya", "Subregion": "Sub-Saharan Africa", "Region": "Africa", "Location": "Nairobi, Marsabit, Turkana, Tana River, Garissa, Kirinyaga, Muranga, Kiambu, Meru, Kisumu, and Kitui", "Origin": "Heavy rain; El Nino", "Associated Types": "Slide (land, mud, snow, rock)|Storm", "OFDA\/BHA Response": "No", "Appeal": "No", "Declaration": "No", "AID Contribution ('000 US$)": null, "Magnitude": null, "Magnitude Scale": "Km2", "Latitude": null, "Longitude": null, "River Basin": null, "Start Year": 2024, "Start Month": 4, "Start Day": 11, "End Year": 2024, "End Month": 4, "End Day": 12, "Total Deaths": 13, "No. Injured": 2, "No. Affected": 15000, "No. Homeless": null, "Total Affected": 15002, "Reconstruction Costs ('000 US$)": null, "Reconstruction Costs, Adjusted ('000 US$)": null, "Insured Damage ('000 US$)": null, "Insured Damage, Adjusted ('000 US$)": null, "Total Damage ('000 US$)": null, "Total Damage, Adjusted ('000 US$)": null, "CPI": null, "Admin Units": null, "Entry Date": "2024-04-12", "Last Update": "2024-04-19" }, "geometry": null },
{ "type": "Feature", "properties": { "DisNo.": "2024-0247-KEN", "Historic": "No", "Classification Key": "nat-hyd-flo-flo", "Disaster Group": "Natural", "Disaster Subgroup": "Hydrological", "Disaster Type": "Flood", "Disaster Subtype": "Flood (General)", "External IDs": null, "Event Name": null, "ISO": "KEN", "Country": "Kenya", "Subregion": "Sub-Saharan Africa", "Region": "Africa", "Location": "Nairobi", "Origin": "Heavy rain; El Nino", "Associated Types": null, "OFDA\/BHA Response": "No", "Appeal": "No", "Declaration": "No", "AID Contribution ('000 US$)": null, "Magnitude": null, "Magnitude Scale": "Km2", "Latitude": null, "Longitude": null, "River Basin": "Mathare river", "Start Year": 2024, "Start Month": 4, "Start Day": 23, "End Year": 2024, "End Month": 4, "End Day": 24, "Total Deaths": 10, "No. Injured": null, "No. Affected": null, "No. Homeless": null, "Total Affected": null, "Reconstruction Costs ('000 US$)": null, "Reconstruction Costs, Adjusted ('000 US$)": null, "Insured Damage ('000 US$)": null, "Insured Damage, Adjusted ('000 US$)": null, "Total Damage ('000 US$)": null, "Total Damage, Adjusted ('000 US$)": null, "CPI": null, "Admin Units": null, "Entry Date": "2024-04-25", "Last Update": "2024-06-11" }, "geometry": null },
{ "type": "Feature", "properties": { "DisNo.": "2024-0892-KEN", "Historic": "No", "Classification Key": "nat-hyd-flo-flo", "Disaster Group": "Natural", "Disaster Subgroup": "Hydrological", "Disaster Type": "Flood", "Disaster Subtype": "Flood (General)", "External IDs": null, "Event Name": null, "ISO": "KEN", "Country": "Kenya", "Subregion": "Sub-Saharan Africa", "Region": "Africa", "Location": null, "Origin": "Heavy rains", "Associated Types": null, "OFDA\/BHA Response": "No", "Appeal": "No", "Declaration": "No", "AID Contribution ('000 US$)": null, "Magnitude": null, "Magnitude Scale": "Km2", "Latitude": null, "Longitude": null, "River Basin": "Nzoia, Nyando, Yala, Miriu and Awach rivers", "Start Year": 2024, "Start Month": 12, "Start Day": 1, "End Year": 2024, "End Month": 12, "End Day": 5, "Total Deaths": 13, "No. Injured": null, "No. Affected": 3970, "No. Homeless": null, "Total Affected": 3970, "Reconstruction Costs ('000 US$)": null, "Reconstruction Costs, Adjusted ('000 US$)": null, "Insured Damage ('000 US$)": null, "Insured Damage, Adjusted ('000 US$)": null, "Total Damage ('000 US$)": null, "Total Damage, Adjusted ('000 US$)": null, "CPI": null, "Admin Units": null, "Entry Date": "2024-12-06", "Last Update": "2024-12-12" }, "geometry": null }
]
}
